{
"type": "FeatureCollection",
"name": "SELECT",
"crs": { "type": "name", "properties": { "name": "urn:ogc:def:crs:OGC:1.3:CRS84" } },
"features": [
{ "type": "Feature", "properties": { "Name": "123090.681295", "description": null, "altitudeMode": "clampToGround", "FID": "1", "Field_1": "123090.681295" }, "geometry": { "type": "MultiLineString", "coordinates": [ [ [ 124.480575120859598, 8.27375203026978 ], [ 124.480665559068001, 8.273661270007512 ], [ 124.480658469241007, 8.271762367444875 ], [ 124.480929782555904, 8.271490086784791 ], [ 124.481380619795303, 8.270674589771771 ], [ 124.481378931391603, 8.270222470210335 ], [ 124.481650918710102, 8.270131037119965 ], [ 124.482646401914906, 8.269313520448176 ], [ 124.483007134991098, 8.268679206855643 ], [ 124.482642685000101, 8.268318857903761 ], [ 124.482639982079803, 8.267595466930324 ], [ 124.482548194238504, 8.267324531832081 ], [ 124.481090405467199, 8.265883130350188 ], [ 124.480818083324806, 8.265884138630932 ], [ 124.4805450865518, 8.265704298791359 ], [ 124.4803635384975, 8.265704970737213 ], [ 124.480182664858702, 8.26588649056561 ], [ 124.479819231373796, 8.265797410078349 ], [ 124.479818219992694, 8.265526138084462 ], [ 124.479453775787803, 8.26516578514812 ], [ 124.479452427724695, 8.264804089084066 ], [ 124.480537667002693, 8.263714971394313 ], [ 124.480528563717797, 8.261273523855571 ], [ 124.480618662479202, 8.261092340063707 ], [ 124.480889632662297, 8.26072963659729 ], [ 124.481252724119997, 8.260728292949102 ], [ 124.4816144662189, 8.260365253182773 ], [ 124.481886784478405, 8.260364245028555 ], [ 124.482519831047895, 8.25972892456282 ], [ 124.482425683902704, 8.258825021556721 ], [ 124.481605697274603, 8.258014230389829 ], [ 124.4815139134774, 8.257743294412954 ], [ 124.481511216117099, 8.257019902687155 ], [ 124.481872617943296, 8.256566439306658 ], [ 124.481870931900005, 8.256114319528379 ], [ 124.482050789292799, 8.255661527921703 ], [ 124.482322092442502, 8.255389248218313 ], [ 124.482318382684895, 8.254394584837101 ], [ 124.483583444173405, 8.252852673421657 ], [ 124.483568599922506, 8.248874021371076 ], [ 124.484111195795805, 8.248329461617148 ], [ 124.4841084968308, 8.247606070406716 ], [ 124.484650752959695, 8.246971086442873 ], [ 124.484739497765403, 8.246428206979264 ], [ 124.485191657241202, 8.245974406573364 ], [ 124.485187269625797, 8.244798896283278 ], [ 124.485004381761698, 8.244437873125301 ], [ 124.484990550453503, 8.240730493677319 ], [ 124.485261168238395, 8.24027736617365 ], [ 124.485255771718201, 8.238830583904097 ], [ 124.485345527610704, 8.238558976243057 ], [ 124.485616818529394, 8.238286696552969 ], [ 124.485615132020996, 8.237834577133807 ], [ 124.486519769030295, 8.237017401309615 ], [ 124.488880053693293, 8.237099077272523 ], [ 124.488971158866505, 8.23718916428799 ], [ 124.491603405088199, 8.237179389968187 ], [ 124.491967150699395, 8.237358887682923 ], [ 124.492693287225606, 8.237356187567013 ], [ 124.492966605198504, 8.237626445433699 ], [ 124.493238906483001, 8.237625432333415 ], [ 124.493330012606506, 8.237715518159291 ], [ 124.494873052848504, 8.237709773358267 ], [ 124.495053229234102, 8.237347403124835 ], [ 124.495050853429902, 8.236714438635282 ], [ 124.495141620234094, 8.236714100521567 ], [ 124.495231029352098, 8.236352068414156 ], [ 124.496044873413794, 8.235535213259256 ], [ 124.496042157029706, 8.234811825533379 ], [ 124.496131904717203, 8.234540216880267 ], [ 124.496858034720702, 8.234537510150373 ], [ 124.497039227437597, 8.2344464098354 ], [ 124.497672211671599, 8.233811076290198 ], [ 124.498123662151897, 8.233176419437617 ], [ 124.498118903420504, 8.231910491959525 ], [ 124.498300094659697, 8.231819391329655 ], [ 124.498388820641907, 8.231276512373563 ], [ 124.498840947685693, 8.230822702096622 ], [ 124.499113243587701, 8.230821685845287 ], [ 124.499111883369494, 8.230459992410717 ], [ 124.499292393540401, 8.230188044779828 ], [ 124.499291373328703, 8.229916774718344 ], [ 124.499562308080698, 8.229554064896845 ], [ 124.499560947667504, 8.229192371514198 ], [ 124.499378737748003, 8.229012202395776 ], [ 124.499197207996403, 8.229012879889245 ], [ 124.499014658353403, 8.228742287188947 ], [ 124.499103383406293, 8.228199408292417 ], [ 124.500549833898205, 8.22665679059706 ], [ 124.501911297768302, 8.226651704261373 ], [ 124.502002402539702, 8.226741788264572 ], [ 124.503000809007801, 8.226738055089141 ], [ 124.503273442435699, 8.226827459723008 ], [ 124.503545053262599, 8.226645594575166 ], [ 124.504271166412593, 8.226642877028869 ], [ 124.504544482151701, 8.226913127060426 ], [ 124.505089067151602, 8.226911087603598 ], [ 124.505269571588698, 8.226639138262273 ], [ 124.505451099752094, 8.226638458220254 ], [ 124.506174480469099, 8.225912352561393 ], [ 124.507354410610802, 8.225907928555261 ], [ 124.507896942515302, 8.225363347449843 ], [ 124.507893182681997, 8.224368694247353 ], [ 124.508345632422106, 8.224005299482631 ], [ 124.508434686379104, 8.223552843882095 ], [ 124.510243105774506, 8.221737569419606 ], [ 124.510696234931601, 8.221555018723043 ], [ 124.511148678817804, 8.22119162179251 ], [ 124.511783674393399, 8.221098810692236 ], [ 124.512146039363003, 8.220916599840022 ], [ 124.512145354171693, 8.220735754122931 ], [ 124.5124618234385, 8.220418079450496 ] ], [ [ 124.480575120859598, 8.27375203026978 ], [ 124.481210551808104, 8.273749675489652 ], [ 124.481757234244, 8.274290199587481 ], [ 124.482484455913607, 8.274558777553082 ], [ 124.482939688566503, 8.274918788654574 ], [ 124.483847448701994, 8.274915418532107 ], [ 124.484299974529804, 8.274552037606743 ], [ 124.485480060809394, 8.274547652221994 ], [ 124.485571175458205, 8.27463773846166 ], [ 124.486204233792904, 8.274002409613987 ], [ 124.486657773155699, 8.273910297609117 ], [ 124.486838646314496, 8.273728774797299 ], [ 124.486837629148397, 8.273457503776875 ], [ 124.4871993747674, 8.273094458030576 ], [ 124.4880156749647, 8.2729105697157 ], [ 124.488921051982501, 8.272274223734197 ], [ 124.4892841526718, 8.272272870927337 ], [ 124.489557157396305, 8.272452703239583 ], [ 124.491100335146996, 8.272446948955618 ], [ 124.491098635298499, 8.271994831436995 ], [ 124.491460035204696, 8.271541359243594 ], [ 124.491277465453706, 8.271270766116848 ], [ 124.491275085753102, 8.27063780160195 ], [ 124.491183971122098, 8.270547716712624 ], [ 124.4910908172332, 8.269915090715466 ], [ 124.491181591781597, 8.269914752147836 ], [ 124.491541630316902, 8.269099586192805 ], [ 124.491903367604394, 8.268736537580601 ], [ 124.491901327627602, 8.268193996655846 ], [ 124.492081855805097, 8.267922048826435 ], [ 124.492079475798604, 8.267289084438728 ], [ 124.492169909699001, 8.267198322271565 ], [ 124.492167529763293, 8.266565357886519 ], [ 124.492257623512401, 8.266384172247257 ], [ 124.495784165896197, 8.262754014369033 ], [ 124.496147256735796, 8.262752656881178 ], [ 124.496780279567702, 8.262117317298017 ], [ 124.497052597142101, 8.26211629861313 ], [ 124.497323550848904, 8.261753586574324 ], [ 124.497322528014706, 8.261482316693321 ], [ 124.498452917587798, 8.260347779115484 ] ], [ [ 124.477972967743398, 8.281899936776925 ], [ 124.480234641882603, 8.279811778795024 ], [ 124.480228561973504, 8.27818414821969 ], [ 124.479864441424894, 8.277914221934795 ], [ 124.479863090878794, 8.277552526168165 ], [ 124.479589410337297, 8.277191839207212 ], [ 124.479581310199507, 8.275021664157064 ], [ 124.479761175122306, 8.274568872019289 ], [ 124.480575120859598, 8.27375203026978 ] ], [ [ 124.448344450129099, 8.322067381463238 ], [ 124.448429590478597, 8.320529825190949 ], [ 124.448791080732406, 8.320076376488451 ], [ 124.448786761626494, 8.318900851300356 ], [ 124.448877216913303, 8.318810095388086 ], [ 124.448875888016502, 8.318448395328696 ], [ 124.449145924380801, 8.317814427519981 ], [ 124.449960017739002, 8.316997623544768 ], [ 124.449959352933504, 8.316816773586517 ], [ 124.450230384087007, 8.316454080394925 ], [ 124.450227392220896, 8.315640255645114 ], [ 124.450499087402605, 8.315458412360083 ], [ 124.451136922321197, 8.316089068410111 ], [ 124.451590856175699, 8.31608741158335 ], [ 124.451773095268706, 8.316267598526661 ], [ 124.452136242421304, 8.316266272497556 ], [ 124.452407603949396, 8.315994003105876 ], [ 124.452589177356003, 8.315993339864727 ], [ 124.452678965103203, 8.315721733589786 ], [ 124.4526719733948, 8.313822811120001 ], [ 124.452761760846798, 8.313551204892567 ], [ 124.453032787368002, 8.313188510561586 ], [ 124.453576171225507, 8.312824820995189 ], [ 124.453575172045106, 8.312553546437135 ], [ 124.453846197195901, 8.312190851780903 ], [ 124.454027768736296, 8.31219018818436 ], [ 124.454208673899302, 8.312008674845357 ], [ 124.454662602439399, 8.312007015321331 ], [ 124.455386553866802, 8.311371385517507 ], [ 124.455931266937995, 8.311369392565826 ], [ 124.456113171521196, 8.31145915283912 ], [ 124.456294075283097, 8.311277638768207 ], [ 124.457292715168506, 8.311273982217772 ], [ 124.457564737507496, 8.31118255984379 ], [ 124.458017662385004, 8.310909622612956 ], [ 124.4586508205022, 8.310274320756299 ], [ 124.460375737453603, 8.310267993866216 ], [ 124.4604661879806, 8.310177236079577 ], [ 124.462463458000798, 8.310169900498858 ], [ 124.462553907946202, 8.310079142324076 ], [ 124.463007832573496, 8.310077473664654 ], [ 124.463279181792302, 8.309805198802552 ], [ 124.463460751469398, 8.309804531091848 ], [ 124.463732100166993, 8.309532256003903 ], [ 124.464004119115302, 8.309440829684187 ], [ 124.464003448490502, 8.309259980792204 ], [ 124.464727042191797, 8.308533912956142 ], [ 124.464722346337595, 8.307267971030145 ], [ 124.464448317120002, 8.306816850932927 ], [ 124.464533065875003, 8.305188877028712 ], [ 124.464714298024901, 8.305097784678299 ], [ 124.466257620410801, 8.305092104129928 ], [ 124.466528628471593, 8.304729403605782 ], [ 124.466520572733202, 8.302559218739798 ], [ 124.466611355776294, 8.302558884445036 ], [ 124.466700124972405, 8.302016003919313 ], [ 124.466971130958399, 8.301653303477694 ], [ 124.466969116968698, 8.301110757308466 ], [ 124.467240457902903, 8.300838481172123 ], [ 124.467328554840407, 8.300114751974098 ], [ 124.467599894920298, 8.299842475741897 ], [ 124.467599223436096, 8.299661627055283 ], [ 124.467870898831904, 8.299479775053058 ], [ 124.467960673688395, 8.299208167582441 ], [ 124.468774689735298, 8.298391337740885 ], [ 124.468773010007595, 8.297939216227476 ], [ 124.468953229904102, 8.297576849771735 ], [ 124.470400358018495, 8.296124705020997 ], [ 124.470399685558803, 8.295943856528883 ], [ 124.470761465792506, 8.295580819820019 ], [ 124.470850229240796, 8.295037939452863 ], [ 124.471304134898801, 8.295036264346361 ], [ 124.471486033574195, 8.295126018365245 ], [ 124.471576478247997, 8.295035259034583 ], [ 124.471939602660399, 8.295033918329686 ], [ 124.472210599548802, 8.294671215874084 ], [ 124.472845393005997, 8.294488020209522 ], [ 124.473116725443006, 8.294215741482642 ], [ 124.474296876295497, 8.294211378852122 ], [ 124.474568207402399, 8.293939099341396 ], [ 124.475022111037305, 8.293937420222987 ], [ 124.4752016490838, 8.293394204067233 ], [ 124.475109856919602, 8.293123267752513 ], [ 124.476556945060196, 8.29167110713451 ], [ 124.476545811041404, 8.288687114434772 ], [ 124.476454694279994, 8.288597026403286 ], [ 124.476453345081893, 8.288235330270648 ], [ 124.476179658123996, 8.287874641908964 ], [ 124.476175948994694, 8.286879977368176 ], [ 124.476355821067102, 8.28642718539316 ], [ 124.476349752173505, 8.284799552493689 ], [ 124.4766214134888, 8.28461769688499 ], [ 124.476620739134404, 8.284436848797204 ], [ 124.476801621651006, 8.284255328967429 ], [ 124.476889702371807, 8.283531600780718 ], [ 124.477070584403293, 8.283350080915341 ], [ 124.476979468987196, 8.283259992785796 ], [ 124.476978120190907, 8.282898296642649 ], [ 124.477972967743398, 8.281899936776925 ] ], [ [ 124.477972967743398, 8.281899936776925 ], [ 124.479153079291095, 8.281895566224813 ], [ 124.480337583419399, 8.283066702898745 ], [ 124.480882251387399, 8.283064682646158 ], [ 124.481474168487594, 8.283559824378395 ] ], [ [ 124.4482533296394, 8.321977287340493 ], [ 124.448129340461705, 8.312935113266775 ], [ 124.447400397803904, 8.31221435581287 ], [ 124.446946136038306, 8.312125581971639 ], [ 124.447035264423604, 8.31167312616431 ], [ 124.447486541148905, 8.310948074059263 ], [ 124.447485877966798, 8.310767223847433 ], [ 124.445390191270604, 8.308695035105764 ], [ 124.444662916104406, 8.30842639643963 ], [ 124.444025104246194, 8.307795725872127 ], [ 124.444023781576902, 8.307434024834569 ], [ 124.443842211416495, 8.307434683491824 ], [ 124.443659980095006, 8.307254491515938 ], [ 124.443658657847493, 8.306892790410103 ], [ 124.444925015550197, 8.305622225744667 ], [ 124.444924023187994, 8.305350950045733 ], [ 124.443739527232907, 8.304179702754569 ], [ 124.443738866313396, 8.30399885218101 ], [ 124.443283293059594, 8.303548371136396 ], [ 124.442647803474799, 8.303550673823219 ], [ 124.442648133664903, 8.303641099155904 ], [ 124.442195532699799, 8.304004444729078 ], [ 124.441469257685995, 8.304007074448384 ], [ 124.441015995355201, 8.304189568142172 ], [ 124.439649615117304, 8.302928537520339 ], [ 124.439648626702606, 8.30265726115187 ], [ 124.439466070129399, 8.302386641045004 ], [ 124.439463434941402, 8.301663237309057 ], [ 124.438278965324699, 8.300491968901243 ], [ 124.438268437125899, 8.297598352005156 ], [ 124.437721765903106, 8.297057764195303 ], [ 124.436813936259, 8.297061038219459 ], [ 124.436814264853496, 8.297151463814417 ], [ 124.436542244361704, 8.297242871234966 ], [ 124.435999516628698, 8.297787388082616 ], [ 124.4350916846209, 8.297790658469809 ], [ 124.434910774555703, 8.297972163633762 ], [ 124.434638096604502, 8.297882718566765 ], [ 124.432913214024396, 8.297888924714682 ], [ 124.432641519372098, 8.298070755464865 ], [ 124.432642830118098, 8.29843245848787 ], [ 124.432918130449394, 8.299245310866546 ], [ 124.431289590933602, 8.300788423093234 ], [ 124.429110772447004, 8.300796245611343 ], [ 124.428929531084805, 8.300887322841696 ], [ 124.428477244399602, 8.301341080385656 ], [ 124.428478878732605, 8.301793209915289 ], [ 124.428661101371205, 8.301973410498428 ], [ 124.4286633899344, 8.30260639176594 ], [ 124.428754174513998, 8.302606066096882 ], [ 124.428845940082496, 8.302877018065313 ], [ 124.428756463403005, 8.303239047318529 ], [ 124.428574893949502, 8.303239698686303 ], [ 124.428393978316706, 8.303421201773931 ], [ 124.4281206434014, 8.303150900831158 ], [ 124.427939073937793, 8.303151551902241 ], [ 124.427260311626398, 8.303741761328979 ] ], [ [ 124.471939965089703, 8.343773168398663 ], [ 124.470117356219404, 8.341971426794489 ], [ 124.470191587132803, 8.337540311361453 ], [ 124.469735605713097, 8.336999449197544 ], [ 124.469643801666606, 8.336728513308481 ], [ 124.469638060828302, 8.335191303677318 ], [ 124.469728175892598, 8.335010119172665 ], [ 124.470272918123101, 8.335008100908668 ], [ 124.470816984369705, 8.334825233791927 ], [ 124.471721506045895, 8.333917627003984 ], [ 124.471720153714998, 8.333555930919044 ], [ 124.471446093783598, 8.333104820791775 ], [ 124.470899327331395, 8.332564295855551 ], [ 124.470898651647303, 8.332383447734545 ], [ 124.470716396595094, 8.332203272510665 ], [ 124.470712005658797, 8.331027759575461 ], [ 124.472611481857001, 8.32912178698008 ], [ 124.472607086913101, 8.327946274868264 ], [ 124.472878438492202, 8.327673992701561 ], [ 124.4728774242123, 8.327402720695105 ], [ 124.472967874604294, 8.327311959955214 ], [ 124.472963817622798, 8.326226871930583 ], [ 124.474320565443406, 8.324865459773847 ], [ 124.474316844217299, 8.323870796239449 ], [ 124.474406616980701, 8.323599187440943 ], [ 124.474677964632605, 8.323326904725612 ], [ 124.474222336050701, 8.32287646951989 ], [ 124.474216587035301, 8.321339261996103 ], [ 124.475934431769502, 8.319433957093567 ], [ 124.476116004841202, 8.319433282835169 ], [ 124.476477796628799, 8.319070238499622 ], [ 124.476384640442603, 8.318437608417126 ], [ 124.478328918985298, 8.316395818387972 ] ], [ [ 124.448344450129099, 8.322067381463238 ], [ 124.4482533296394, 8.321977287340493 ] ], [ [ 124.457637285081702, 8.330804709445919 ], [ 124.4576285834072, 8.328453669532365 ], [ 124.460070846039002, 8.32600320108352 ], [ 124.459978382030201, 8.325551412147272 ], [ 124.459431640865901, 8.325010866669292 ], [ 124.459430636169998, 8.324739592986532 ], [ 124.4592483895957, 8.324559410907938 ], [ 124.459155927124101, 8.324107621527119 ], [ 124.4587904309343, 8.32347598307075 ], [ 124.458789426867398, 8.323204709289261 ], [ 124.458516058679905, 8.322934435407335 ], [ 124.457971664755902, 8.323026859283013 ], [ 124.457066792237995, 8.323844011708049 ], [ 124.456158908795402, 8.323847340422194 ], [ 124.455521052531495, 8.323216696213759 ], [ 124.455610504983696, 8.322854664711752 ], [ 124.455154895021295, 8.322404203748757 ], [ 124.455151890819806, 8.321590381027177 ], [ 124.454967978944495, 8.320958072579224 ], [ 124.454057099883201, 8.320147572176332 ], [ 124.453874524404199, 8.31987696199459 ], [ 124.453603161855, 8.320149232622123 ], [ 124.452786406352203, 8.320242644969598 ], [ 124.450615486763994, 8.322420801898433 ], [ 124.448617811847896, 8.322337663660834 ], [ 124.448344450129099, 8.322067381463238 ] ], [ [ 124.4482533296394, 8.321977287340493 ], [ 124.446886527288001, 8.320625872087174 ], [ 124.446701633404004, 8.319722282139349 ], [ 124.445609859041099, 8.31909326998364 ], [ 124.445337495940706, 8.319094260401252 ], [ 124.445246376824201, 8.319004165340424 ], [ 124.4444296186972, 8.319097560446613 ], [ 124.444156924292102, 8.319008124853994 ], [ 124.443704640892804, 8.319461899868523 ], [ 124.443341820429794, 8.319553643934498 ], [ 124.443070449545402, 8.319825908581276 ], [ 124.442344145704098, 8.319828544872014 ], [ 124.442343814930894, 8.31973811960054 ], [ 124.441888552373797, 8.319378065427999 ], [ 124.441616188628103, 8.319379053329923 ], [ 124.441252375909002, 8.319199519607741 ], [ 124.4407984363921, 8.31920116524592 ], [ 124.440617851637199, 8.319473099383691 ], [ 124.4403461482853, 8.319654937130938 ], [ 124.440346808912494, 8.319835787833895 ], [ 124.439892868481707, 8.319837432562982 ], [ 124.437992913929406, 8.321652843588156 ], [ 124.437631408425204, 8.322106284798213 ], [ 124.4372675941637, 8.321926747570224 ], [ 124.436359707162097, 8.321930030297089 ], [ 124.436086682147106, 8.321750163687318 ], [ 124.435905104763194, 8.321750819845176 ], [ 124.435362348095097, 8.322295341060729 ], [ 124.434999192694704, 8.322296652717011 ], [ 124.434727484367897, 8.322478487368558 ], [ 124.434636366343597, 8.322388389608973 ], [ 124.433365321477197, 8.322392976684238 ], [ 124.432910061876001, 8.32203291139491 ], [ 124.432727169503494, 8.321671863542043 ], [ 124.432545263287096, 8.321582092505354 ], [ 124.4322728968977, 8.321583074264566 ], [ 124.432001515912603, 8.321855332861857 ], [ 124.431184415883294, 8.321858276558043 ], [ 124.430551190584396, 8.322493545051534 ], [ 124.430278823327001, 8.322494525550885 ], [ 124.429826845957393, 8.323038713840441 ], [ 124.429372899737999, 8.323040347181225 ], [ 124.427834723580702, 8.324492709957452 ], [ 124.427835706500403, 8.324763987437979 ], [ 124.426207055235594, 8.326307098142284 ], [ 124.426026456856903, 8.326579027811443 ], [ 124.426027438781503, 8.326850305478198 ], [ 124.425846512798202, 8.327031809226975 ], [ 124.425847821945396, 8.327393512802038 ], [ 124.425486623663403, 8.327937371992682 ], [ 124.425487932624506, 8.328299075608205 ], [ 124.425126078806002, 8.328662082840623 ], [ 124.425126569578694, 8.328797721713677 ] ], [ [ 124.471939965089703, 8.343773168398663 ], [ 124.471395549555695, 8.343865615048511 ], [ 124.467686565471794, 8.347496381960079 ], [ 124.467234624447599, 8.348040608278403 ], [ 124.4661447648745, 8.347954217784428 ], [ 124.465598991940695, 8.347684960864953 ], [ 124.463776385777194, 8.345883188536474 ], [ 124.4637740285836, 8.345250218500725 ], [ 124.463135111926903, 8.344348322318497 ], [ 124.463042300041707, 8.343806111523321 ], [ 124.460946339771695, 8.341734052542053 ], [ 124.460943316511603, 8.340920232718146 ], [ 124.460305085765398, 8.340199178359216 ], [ 124.4603030714851, 8.339656631616057 ], [ 124.458753909304406, 8.33812509554061 ], [ 124.458733464010805, 8.332609198534906 ], [ 124.458458748313006, 8.33197722758867 ], [ 124.457820873576296, 8.331346590228273 ], [ 124.457819534434805, 8.330984891838231 ], [ 124.457637285081702, 8.330804709445919 ] ], [ [ 124.551736254085796, 8.410019303824354 ], [ 124.550368797577306, 8.408668369471149 ], [ 124.550365922557503, 8.407945006385464 ], [ 124.550637255954101, 8.407672671630946 ], [ 124.550633302658497, 8.406678047457799 ], [ 124.550450258209295, 8.406317081558127 ], [ 124.550449180295999, 8.406045820382399 ], [ 124.550175692256403, 8.405775632421658 ], [ 124.550265058702394, 8.40541359309295 ], [ 124.550445946772399, 8.405232036832013 ], [ 124.550440558287093, 8.403875730837353 ], [ 124.550349036990397, 8.403695247701567 ], [ 124.550529924363801, 8.403513691538521 ], [ 124.550528128377195, 8.403061589529736 ], [ 124.551703172292306, 8.401700632658464 ], [ 124.551683770512099, 8.396817932671915 ], [ 124.551591891793507, 8.39654702918013 ], [ 124.550497970767097, 8.395466274176769 ], [ 124.550492229663107, 8.394019547099413 ], [ 124.5505826715018, 8.393928769362221 ], [ 124.550576572412893, 8.392391621781197 ], [ 124.550847896810893, 8.392119288665608 ], [ 124.550847179245196, 8.39193844778641 ], [ 124.5512093032346, 8.391665757230037 ], [ 124.551299385566097, 8.391484559024748 ], [ 124.551297232455696, 8.390942036481102 ], [ 124.5514781144865, 8.390760480923511 ], [ 124.551656842975802, 8.390036402836181 ], [ 124.552380367934404, 8.38931018001599 ], [ 124.552321542652095, 8.374481230932842 ], [ 124.552502417912095, 8.374299676233605 ], [ 124.552498834152402, 8.373395471718045 ], [ 124.552770146220297, 8.373123139672556 ], [ 124.552132068499901, 8.372492694335003 ], [ 124.552124904658896, 8.370684284777299 ], [ 124.552215341648704, 8.370593507614387 ], [ 124.5522128345645, 8.369960564253088 ], [ 124.552483786737795, 8.369597812285184 ], [ 124.552298973789107, 8.368784741331789 ], [ 124.5526607198764, 8.368421632756119 ], [ 124.552658929039595, 8.367969530403645 ], [ 124.552839801662998, 8.367787976069893 ], [ 124.552835861802706, 8.366793350933349 ], [ 124.552926656031602, 8.366792994250197 ], [ 124.553378119305904, 8.366158267390409 ], [ 124.553466405604397, 8.365524967484506 ], [ 124.553646918596698, 8.365252992592861 ], [ 124.5536458438132, 8.364981731266719 ], [ 124.5538267147721, 8.364800176790364 ], [ 124.553825281648301, 8.364438495044046 ], [ 124.554006152304694, 8.364256940541807 ], [ 124.553910701332896, 8.363081831682392 ], [ 124.553637605005306, 8.362902060971741 ], [ 124.553817400614605, 8.362449245316963 ], [ 124.553806656878606, 8.35973663171921 ], [ 124.553532489235195, 8.359285599053942 ], [ 124.553437401529905, 8.358200909798301 ], [ 124.552981293621002, 8.357660168753702 ], [ 124.552979862516807, 8.357298486731544 ], [ 124.552797563009307, 8.357118358268748 ], [ 124.552879412775297, 8.354857489091261 ], [ 124.552605965644204, 8.354587295928226 ], [ 124.552597027790299, 8.352326782423635 ], [ 124.551686260729895, 8.351606976752604 ], [ 124.551504679186607, 8.351607688244412 ], [ 124.551048939923206, 8.351157363528033 ], [ 124.551045012538097, 8.350162736710123 ], [ 124.550771570302203, 8.349892541389067 ], [ 124.5505899894723, 8.349893252316667 ], [ 124.544574357560904, 8.343948885941673 ], [ 124.544571515643298, 8.343225518502853 ], [ 124.542748636744804, 8.341424169739584 ], [ 124.542746153753797, 8.3407912226047 ], [ 124.542016653758395, 8.339980258558718 ], [ 124.541923029580005, 8.339257243120164 ], [ 124.542104251761103, 8.339166116003462 ], [ 124.542283701300505, 8.338622883572119 ], [ 124.542009564625602, 8.338171837360498 ], [ 124.542823465923902, 8.337354870382343 ], [ 124.542912480882904, 8.336902412084646 ], [ 124.542821338583806, 8.336812344176208 ], [ 124.542820274967397, 8.336541081067388 ], [ 124.543859543855405, 8.335316335598144 ] ], [ [ 124.457637285081702, 8.330804709445919 ], [ 124.456908289335999, 8.330083978736416 ], [ 124.456902268369703, 8.328456335160723 ], [ 124.455626538424795, 8.327195050999586 ], [ 124.455354170940396, 8.327196049243016 ], [ 124.455082805424894, 8.327468321476276 ], [ 124.453267687045596, 8.327655820233176 ], [ 124.453177564847195, 8.327837002081669 ], [ 124.452995986033898, 8.327837666529351 ], [ 124.452543706174296, 8.328291451408289 ], [ 124.452089758461099, 8.328293111737416 ], [ 124.451456897283705, 8.329018834252075 ], [ 124.4511845280324, 8.329019829852745 ], [ 124.450370750136898, 8.329927064590869 ], [ 124.450279960136996, 8.329927396266084 ], [ 124.450279627134904, 8.32983697135872 ], [ 124.450007257175301, 8.32983796624894 ], [ 124.449644762893001, 8.330020142344194 ], [ 124.449190812602296, 8.330021799701232 ], [ 124.448919107780995, 8.330203643788554 ], [ 124.448555947269597, 8.330204969080983 ], [ 124.448283909405703, 8.330296387818375 ], [ 124.447922078645604, 8.330659412542172 ], [ 124.446923385497698, 8.330663053987676 ], [ 124.4469237177628, 8.330753479026104 ], [ 124.446742137100202, 8.330754140844672 ], [ 124.446108929310995, 8.331389432042554 ], [ 124.446109593529499, 8.331570282177722 ], [ 124.445928344498, 8.331661368762559 ], [ 124.445202019763201, 8.33166401400412 ], [ 124.445021102283107, 8.331845525326941 ], [ 124.443931945770103, 8.331939915441485 ], [ 124.443660236727197, 8.332121756552326 ], [ 124.443478655171205, 8.332122416986047 ], [ 124.442574060581904, 8.333029969952047 ], [ 124.442029314350805, 8.333031949727889 ], [ 124.4418483946382, 8.333213459948615 ], [ 124.441666812433198, 8.333214119639367 ], [ 124.441305303403794, 8.333667565026914 ], [ 124.4408523402181, 8.333940489368546 ], [ 124.440309577637393, 8.334485018719784 ], [ 124.439492454402995, 8.334487983955619 ], [ 124.439130280324207, 8.33476057729599 ], [ 124.438859558541495, 8.335213691826088 ], [ 124.438861872796394, 8.335846669199864 ], [ 124.437324026286802, 8.337389495790489 ], [ 124.437326669041596, 8.338112898912412 ], [ 124.437508914663695, 8.33829309158515 ], [ 124.437509575487795, 8.338473942345219 ], [ 124.438603053312605, 8.339555095896609 ], [ 124.438605368377097, 8.340188073203853 ], [ 124.439016417441593, 8.340864780530453 ] ], [ [ 124.4813048433261, 8.347264848852809 ], [ 124.4808491759471, 8.346814427948734 ], [ 124.475492402904393, 8.346834412570001 ], [ 124.475037420339902, 8.346564831375758 ], [ 124.474308364029696, 8.345844143793114 ], [ 124.474035985925198, 8.345845157093981 ], [ 124.471939965089703, 8.343773168398663 ] ], [ [ 124.482216181214994, 8.348165688510701 ], [ 124.482210042195703, 8.346538064977675 ], [ 124.482300493683496, 8.346447301801136 ], [ 124.482298447516897, 8.345904760612651 ], [ 124.4824790091143, 8.345632810731688 ], [ 124.482656330423396, 8.344501837346284 ] ], [ [ 124.482216181214994, 8.348165688510701 ], [ 124.4813048433261, 8.347264848852809 ] ], [ [ 124.490615797544706, 8.360431896583405 ], [ 124.489431681428201, 8.359441687541818 ], [ 124.488246885300001, 8.358270627396395 ], [ 124.488245170853105, 8.35781851123409 ], [ 124.487880620114396, 8.357458183975108 ], [ 124.487517440802606, 8.35745954932063 ], [ 124.487516755415797, 8.357278702789404 ], [ 124.487061068521399, 8.356828292536482 ], [ 124.487059698288704, 8.35646659938554 ], [ 124.486877424021301, 8.356286435049961 ], [ 124.486875026608104, 8.355653471961054 ], [ 124.486419000188107, 8.355112637152704 ], [ 124.486413523132299, 8.353665863959474 ], [ 124.483497183257597, 8.350783211179856 ], [ 124.483585244715002, 8.350059483393455 ], [ 124.482947302332903, 8.349428899119896 ], [ 124.482854461487094, 8.348886698061522 ], [ 124.482216181214994, 8.348165688510701 ] ], [ [ 124.502131196599507, 8.380010328241283 ], [ 124.499588810475601, 8.380019996017507 ], [ 124.499406864970993, 8.379930263276764 ], [ 124.496945940321595, 8.377498154047865 ], [ 124.496761576944095, 8.376775460212677 ], [ 124.495941277609901, 8.375964751720721 ], [ 124.495759680061198, 8.375965439641648 ], [ 124.495486247806397, 8.375695202811194 ], [ 124.495032254123302, 8.375696921879117 ], [ 124.494849966333703, 8.37551676360186 ], [ 124.4949380038735, 8.3747930368586 ], [ 124.495390270399, 8.374339203775406 ], [ 124.495387508792206, 8.373615820860861 ], [ 124.496020679212407, 8.372980454153529 ], [ 124.497473447926396, 8.372974949437427 ], [ 124.499114040477195, 8.374596359043284 ], [ 124.499477233730403, 8.374594980257136 ], [ 124.499567685844696, 8.374504212820275 ], [ 124.499840773177496, 8.374684023813723 ], [ 124.500564388261907, 8.373957883360921 ], [ 124.501199974954304, 8.373955468115355 ], [ 124.501380877959207, 8.373773932625772 ], [ 124.501377758939398, 8.372960129061847 ], [ 124.501559008045902, 8.372869016190913 ], [ 124.500556422213407, 8.371878162310953 ], [ 124.500549496880296, 8.370069709040367 ], [ 124.500366863907303, 8.36979913057011 ], [ 124.499731975775703, 8.369982388691513 ], [ 124.4984608142301, 8.369987211165329 ], [ 124.498004754021693, 8.369446395836352 ], [ 124.498003371593498, 8.369084704727193 ], [ 124.497821431849502, 8.368994970248771 ], [ 124.497459279936905, 8.369267615000172 ], [ 124.496914496934707, 8.369269678967378 ], [ 124.4967332478857, 8.369360789619535 ], [ 124.496551308189296, 8.369271054528653 ], [ 124.496458784785304, 8.368819284154799 ], [ 124.496276155038103, 8.368548703176078 ], [ 124.496003763906003, 8.368549734350232 ], [ 124.494636636131105, 8.367198543558887 ], [ 124.494091166069495, 8.36701975723145 ], [ 124.493908883381494, 8.366839597657911 ], [ 124.493998646391802, 8.366567985639488 ], [ 124.4948127136323, 8.365751090111123 ], [ 124.495082000043993, 8.364936253852282 ], [ 124.496167415025397, 8.363847057829611 ], [ 124.496257521030103, 8.363665868530035 ], [ 124.496255796228695, 8.363213754148019 ], [ 124.496346247061098, 8.363122987729875 ], [ 124.496342797577299, 8.36221875896724 ], [ 124.497247301896294, 8.36131109436519 ], [ 124.498246050208095, 8.361307312583717 ], [ 124.499240997131494, 8.360308877874406 ], [ 124.499604177129598, 8.360307501306288 ], [ 124.499784384566993, 8.359945121917523 ], [ 124.499783347703698, 8.359673853678208 ], [ 124.499692207271593, 8.35958377511562 ], [ 124.4996887515602, 8.358679547581502 ], [ 124.499233742129107, 8.358409999678932 ], [ 124.499233051265506, 8.358229154126697 ], [ 124.499050426063704, 8.357958573758102 ], [ 124.498594727355794, 8.357508179274779 ], [ 124.497051222228393, 8.357514021508782 ], [ 124.496508179344602, 8.357968196497476 ], [ 124.4957818225827, 8.357970942854312 ], [ 124.495329572117498, 8.358424773344769 ], [ 124.492878112880405, 8.358434030161886 ], [ 124.490888183711604, 8.360430870111111 ], [ 124.490615797544706, 8.360431896583405 ] ], [ [ 124.4813048433261, 8.347264848852809 ], [ 124.479852159059604, 8.347270277522851 ], [ 124.479398875845007, 8.347452820181134 ], [ 124.477318118555701, 8.349449934314489 ], [ 124.474594314688702, 8.349460083939309 ], [ 124.474232158519996, 8.34973270734829 ], [ 124.470509617839198, 8.349746545282441 ], [ 124.470148134740001, 8.350200013511106 ], [ 124.469422121870906, 8.350293133042481 ], [ 124.468336312568894, 8.351291838727107 ], [ 124.468336988628494, 8.351472686884941 ], [ 124.468519591345498, 8.351743285743861 ], [ 124.468521281826497, 8.352195406087668 ], [ 124.469067401114202, 8.352555081532326 ], [ 124.469159886955893, 8.353006864851013 ], [ 124.464998854065996, 8.357181853603239 ], [ 124.464817600123695, 8.357272949993289 ], [ 124.462093726659702, 8.357283023032876 ], [ 124.4620025940077, 8.357192934168673 ], [ 124.461094635602606, 8.357196287440825 ], [ 124.460551879296503, 8.35774084460915 ], [ 124.460370287274202, 8.357741514808158 ], [ 124.460371633127806, 8.358103212298445 ], [ 124.460281173479302, 8.358193971756609 ], [ 124.460099917639198, 8.358285066249577 ], [ 124.459464344485298, 8.358287411007593 ], [ 124.458378822572399, 8.359376521609045 ], [ 124.458016308614006, 8.359558709111381 ], [ 124.457562325912406, 8.359560381905515 ], [ 124.457199811289996, 8.359742568752019 ], [ 124.456747506769901, 8.360196363195026 ], [ 124.456384319820103, 8.360197700408698 ], [ 124.456293858692007, 8.360288459186933 ], [ 124.456206418105097, 8.36119303870308 ], [ 124.455754781966803, 8.361827681545272 ], [ 124.455756124232906, 8.362189379707489 ], [ 124.455303479937498, 8.36255274865894 ], [ 124.455304150914003, 8.362733597770717 ], [ 124.4549423030453, 8.363096632338996 ], [ 124.454579448459995, 8.363188392938405 ], [ 124.453674824701693, 8.364095977729328 ], [ 124.453677170996599, 8.36472895002364 ], [ 124.453496915837704, 8.365091316095857 ], [ 124.453315319841295, 8.365091983640211 ], [ 124.453134394012594, 8.365273500364831 ], [ 124.4531350642104, 8.365454349626726 ], [ 124.451958706920294, 8.366543782387998 ], [ 124.451962725697598, 8.367628878432532 ], [ 124.4515100717244, 8.367992244618721 ], [ 124.451146541963098, 8.367903153559016 ], [ 124.451147211457595, 8.368084002957007 ], [ 124.450785354996995, 8.368447035126954 ], [ 124.450788032575005, 8.369170432805097 ], [ 124.4502908127117, 8.369760026541359 ] ], [ [ 124.490615797544706, 8.360431896583405 ], [ 124.490253989770096, 8.360794957473074 ], [ 124.489346034640306, 8.360798377011161 ], [ 124.489074677627698, 8.361070672021871 ], [ 124.489075364047906, 8.361251518389947 ], [ 124.488532648688903, 8.361796108079831 ], [ 124.487806282191698, 8.361798841041525 ], [ 124.486629705737997, 8.362797935339598 ], [ 124.486631419359099, 8.363250051721566 ], [ 124.486088355107498, 8.363704215786523 ], [ 124.485725169718407, 8.363705580499039 ], [ 124.485181076364, 8.363888473608135 ], [ 124.484547555078194, 8.364433400372906 ], [ 124.483367199317101, 8.364437830255172 ], [ 124.483095151404001, 8.364529275451053 ], [ 124.482914925838003, 8.364891650228234 ], [ 124.482826522654406, 8.365524954718738 ], [ 124.482645612681196, 8.365706482623473 ], [ 124.4823732218278, 8.365707504060795 ], [ 124.482009008675504, 8.365437595320653 ], [ 124.481101039390097, 8.365440997812248 ], [ 124.480920128510704, 8.365622525060392 ], [ 124.480193752411196, 8.365625245279904 ], [ 124.479922385184594, 8.36589753563795 ], [ 124.479468399627194, 8.36589923484137 ], [ 124.478558041437395, 8.365269666509901 ], [ 124.478557700482895, 8.365179242911671 ], [ 124.477646663837206, 8.364368824636724 ], [ 124.475285944663298, 8.364377639621315 ], [ 124.475105371161405, 8.364649588342401 ], [ 124.475113195269799, 8.36672933430105 ], [ 124.475295811056895, 8.366999927788632 ], [ 124.475297852779605, 8.367542470123309 ], [ 124.475116937946794, 8.367723995331977 ], [ 124.474935342494106, 8.367724673015809 ], [ 124.474211681093095, 8.368450773022701 ], [ 124.474031445434406, 8.36881314542112 ], [ 124.473759731358996, 8.368995008854611 ], [ 124.473487337123998, 8.368996024567064 ], [ 124.473035045885098, 8.369449836034425 ], [ 124.472490256570495, 8.369451866382464 ], [ 124.471811816636901, 8.370132582162675 ] ], [ [ 124.523208320819805, 8.406242634714088 ], [ 124.523199144265703, 8.40389167420436 ], [ 124.523380046614307, 8.403710128236563 ], [ 124.523363463369904, 8.399460314591387 ], [ 124.522542357711103, 8.3984688373368 ], [ 124.522541652698393, 8.398287994103518 ], [ 124.5222681868769, 8.398017782189203 ], [ 124.522175622107994, 8.397566024953209 ], [ 124.521811002167695, 8.39720574181055 ], [ 124.521719142770905, 8.396934827637276 ], [ 124.521172214671594, 8.396394401828173 ], [ 124.5208998072968, 8.39639545361913 ], [ 124.516979851389195, 8.392431946380794 ], [ 124.514074194694302, 8.392443119630887 ], [ 124.514074895291998, 8.392623963630633 ], [ 124.513712738429803, 8.392896624854654 ], [ 124.5126227647131, 8.392810386471574 ], [ 124.511164338797101, 8.391369205982247 ], [ 124.510891933657305, 8.391370250233766 ], [ 124.510436876804505, 8.391100723760031 ], [ 124.509709764823896, 8.390922662204492 ], [ 124.508524806849906, 8.389751692191318 ], [ 124.5083432039565, 8.389752387031129 ], [ 124.507978603066505, 8.389392087384824 ], [ 124.507885360629899, 8.388759478749995 ], [ 124.507520761175996, 8.388399178424116 ], [ 124.508243682848601, 8.387492177872023 ], [ 124.508235314269001, 8.385322043334581 ], [ 124.510135141460097, 8.383506303654427 ], [ 124.510678544444801, 8.383142529213211 ], [ 124.511041394487904, 8.383050716217101 ], [ 124.511493646888894, 8.382596866471529 ], [ 124.512401643266998, 8.382593387129852 ], [ 124.512853893376501, 8.382139536188394 ], [ 124.512851096886607, 8.381416159385713 ], [ 124.512759249002002, 8.381145241149223 ], [ 124.511300873883499, 8.379704052712658 ], [ 124.508848951065005, 8.379623009819049 ], [ 124.507481741416498, 8.378271878886711 ], [ 124.504122182309899, 8.378284693582277 ], [ 124.503760375698207, 8.378647767226814 ], [ 124.503488325751107, 8.378739227305319 ], [ 124.503035718902694, 8.379102646289891 ], [ 124.502131196599507, 8.380010328241283 ] ], [ [ 124.502131196599507, 8.380010328241283 ], [ 124.500955311339197, 8.381190312724373 ], [ 124.499139315104301, 8.381197215503772 ], [ 124.499048861602006, 8.381287983102773 ], [ 124.498050408862994, 8.381382198604742 ], [ 124.497688593273395, 8.381745268124035 ], [ 124.4977793933095, 8.381744923494709 ], [ 124.498056293551002, 8.382919384783666 ], [ 124.497694822923407, 8.38337287725615 ], [ 124.4976982843814, 8.384277104491904 ], [ 124.497517375377598, 8.384458639356094 ], [ 124.496518221822598, 8.384372006915235 ], [ 124.495427230640203, 8.38401444762861 ], [ 124.494060041034999, 8.382663264998582 ], [ 124.492425633170399, 8.382669450403696 ], [ 124.491787616738904, 8.382038893186238 ], [ 124.491152014181694, 8.38204129558793 ], [ 124.491060524732205, 8.381860792690466 ], [ 124.490697323338594, 8.381862164918658 ], [ 124.490059999299902, 8.381412450264996 ], [ 124.487789991142506, 8.381421015002466 ], [ 124.487517933698001, 8.381512465049887 ], [ 124.487291791794107, 8.381739378569497 ] ], [ [ 124.551736254085796, 8.410019303824354 ], [ 124.550192939588001, 8.410115811392851 ], [ 124.548293226522702, 8.411931731829924 ], [ 124.547839201935204, 8.411933519236058 ], [ 124.545924769814704, 8.410042188779835 ], [ 124.545923694563797, 8.409770927072506 ], [ 124.545650206000502, 8.409500735918705 ], [ 124.545643398338797, 8.407782744769534 ], [ 124.545369911580195, 8.407512553107146 ], [ 124.545095350888104, 8.406971099330123 ], [ 124.545092128167596, 8.406157313749958 ], [ 124.543815867599406, 8.404896413908311 ], [ 124.543723991079602, 8.404625508041139 ], [ 124.542721221711602, 8.403634796601727 ], [ 124.542354078535794, 8.402641591746459 ], [ 124.542171758065194, 8.402461461721897 ], [ 124.537631604733093, 8.402479221689687 ], [ 124.537450354528502, 8.402570351965474 ], [ 124.537179013166707, 8.402842678713846 ], [ 124.537180081443296, 8.40311394163778 ], [ 124.537271953149698, 8.403384849937101 ], [ 124.537910070841207, 8.404015313587641 ], [ 124.537913990447294, 8.40500994388791 ], [ 124.538187470913101, 8.40528014201689 ], [ 124.538280413450295, 8.405822312580428 ], [ 124.537285845280607, 8.406911267395447 ], [ 124.530838736250402, 8.406936404154445 ], [ 124.530205232648797, 8.407481404222137 ], [ 124.530023623347205, 8.407482110524578 ], [ 124.529480922426998, 8.408026756610122 ], [ 124.5251222872581, 8.408043677819641 ], [ 124.523208320819805, 8.406242634714088 ] ], [ [ 124.601793270473607, 8.481792545665273 ], [ 124.601786154061898, 8.480074607384944 ], [ 124.601056611401901, 8.479354246821245 ], [ 124.601049126112002, 8.477545889852806 ], [ 124.601320457050093, 8.477273518510136 ], [ 124.601318211478599, 8.476731011450457 ], [ 124.601499098353898, 8.47654943053108 ], [ 124.6015846761685, 8.475283208175174 ], [ 124.601675493544406, 8.475282835564171 ], [ 124.601674745016496, 8.475101999892489 ], [ 124.602126959844199, 8.474648047475192 ], [ 124.602762680175502, 8.474645438066087 ], [ 124.603034008031401, 8.474373066095534 ], [ 124.603485471024896, 8.473738277018567 ], [ 124.604118566148998, 8.473102741528436 ], [ 124.604207883884499, 8.472740697488472 ], [ 124.604116317777496, 8.472560235099277 ], [ 124.605834706416303, 8.470835207284683 ], [ 124.606557858723903, 8.470018460689113 ], [ 124.606557108388003, 8.469837625403146 ], [ 124.606738364932397, 8.469746460688066 ], [ 124.606826929514796, 8.469203581322578 ], [ 124.606644547767601, 8.469023493101986 ], [ 124.606638921020206, 8.467667228403968 ], [ 124.606729361279605, 8.467576437304752 ], [ 124.606728235991099, 8.467305184364262 ], [ 124.606909491406697, 8.467214019787239 ], [ 124.607273878020806, 8.46748377854454 ], [ 124.607455508601504, 8.46748303133791 ], [ 124.607998147949999, 8.466938283664296 ], [ 124.607906582124798, 8.466757822186279 ], [ 124.607900577211296, 8.465311140570899 ], [ 124.607718197233993, 8.465131052568228 ], [ 124.607708067721504, 8.462689776848494 ], [ 124.607616878480101, 8.462599732681777 ], [ 124.607614252981705, 8.461966809264059 ], [ 124.607794755667797, 8.461694809506895 ], [ 124.6074292500398, 8.461153797277422 ], [ 124.607425500477902, 8.460249620809586 ], [ 124.607606377707597, 8.460068038883414 ], [ 124.607515189217295, 8.459977994561658 ], [ 124.607242748623705, 8.459979114395823 ], [ 124.606969183559997, 8.459708981026989 ], [ 124.6069575666085, 8.456906032993544 ], [ 124.607138442833005, 8.456724451504847 ], [ 124.607135819964597, 8.456091527748276 ], [ 124.6069530707951, 8.455821020739746 ], [ 124.606952321551006, 8.455640185358044 ], [ 124.606040452141897, 8.454739736857402 ], [ 124.605677202650597, 8.454741227641419 ], [ 124.605586016010307, 8.454651182528309 ], [ 124.605584893263895, 8.45437992925628 ], [ 124.605220895720194, 8.454200584005376 ], [ 124.605128586961996, 8.453839285399514 ], [ 124.604399097862697, 8.453118922104451 ], [ 124.604035849595306, 8.453120411081823 ], [ 124.601847400165397, 8.450959307439057 ], [ 124.601665776822799, 8.450960050597496 ], [ 124.6014834072041, 8.450779957758748 ], [ 124.601392968667099, 8.450870747217003 ], [ 124.600938910281798, 8.450872604408993 ], [ 124.600665356400995, 8.450602464491375 ], [ 124.600392921473102, 8.450603578328369 ], [ 124.600210552532602, 8.450423484751848 ], [ 124.599756494406904, 8.450425340475238 ], [ 124.599299828066506, 8.449794269274513 ], [ 124.599295730014703, 8.448799670606192 ], [ 124.598930995140094, 8.448439481775038 ], [ 124.598930250295595, 8.448258645612238 ], [ 124.596650302125099, 8.445917036301976 ], [ 124.596468680678001, 8.445917776611193 ], [ 124.596012768865904, 8.445467535902015 ], [ 124.596006452020603, 8.443930426033035 ], [ 124.595823716958193, 8.443659911151215 ], [ 124.595821859562307, 8.443207819942833 ], [ 124.5955472008161, 8.442666419909145 ], [ 124.595546086692195, 8.442395165134998 ], [ 124.594907818531198, 8.441764824968105 ], [ 124.594904849128696, 8.441041478635626 ], [ 124.594813297201995, 8.440861011588893 ], [ 124.594357022984696, 8.440320349059958 ], [ 124.594355168039996, 8.439868257450406 ], [ 124.594536044813594, 8.439686682015656 ], [ 124.594353313198297, 8.439416165830053 ], [ 124.594534189802104, 8.439234590431111 ], [ 124.594532334893401, 8.438782498835753 ], [ 124.594076434833099, 8.438332253740771 ], [ 124.594256198561197, 8.437879423522181 ], [ 124.594163535434006, 8.437427701075313 ], [ 124.595701346805996, 8.43597472867271 ], [ 124.595699491267396, 8.435522637260519 ], [ 124.595789928481807, 8.435431849466855 ], [ 124.595788444057206, 8.435070176343659 ], [ 124.595059010837204, 8.434349785182315 ], [ 124.594965977571206, 8.433807644540703 ], [ 124.594600891899205, 8.433357029704244 ], [ 124.594597555357296, 8.432543264608166 ], [ 124.594959302931798, 8.432180114641437 ], [ 124.595231725669706, 8.43217900698636 ], [ 124.596050848859093, 8.432627774299021 ], [ 124.596323271765002, 8.432626665827756 ], [ 124.5963203029917, 8.431903319660135 ], [ 124.596682048175296, 8.431540168503156 ], [ 124.5966772235994, 8.430364731108298 ], [ 124.597400710178604, 8.429638428524733 ], [ 124.599034861811404, 8.429541353418847 ], [ 124.599939211533695, 8.428633470966943 ], [ 124.599938096227604, 8.428362216582984 ], [ 124.600209771985007, 8.428180269736714 ], [ 124.601203806047195, 8.42700076097735 ], [ 124.601200830215106, 8.426277416333813 ], [ 124.600562585996698, 8.425647081652885 ], [ 124.599200498352701, 8.425652632272767 ], [ 124.598835789314293, 8.425292438877761 ], [ 124.598833932519995, 8.424840347914273 ], [ 124.599014429759904, 8.42456835378554 ], [ 124.598922510075496, 8.424297468993675 ], [ 124.597646037393204, 8.423036788063564 ], [ 124.597464426718702, 8.423037526842965 ], [ 124.597099721890203, 8.422677331031331 ], [ 124.595919252984601, 8.422682129752758 ], [ 124.595737271790597, 8.422592449361954 ], [ 124.594004938366098, 8.420881505617938 ], [ 124.593369303317701, 8.42088408443197 ], [ 124.593186953552603, 8.420703984122781 ], [ 124.593096888235195, 8.420885189323439 ], [ 124.592732189076898, 8.420524988287641 ], [ 124.592727382811304, 8.419349547964716 ], [ 124.592089163195993, 8.418719194615592 ], [ 124.591905337308305, 8.418177419274034 ], [ 124.591897579910494, 8.416278630031014 ], [ 124.592078449139706, 8.41609705734691 ], [ 124.592073647409293, 8.414921616384643 ], [ 124.591162288334402, 8.414111525819512 ], [ 124.590797229160003, 8.413660902754922 ], [ 124.590796491198105, 8.413480065553127 ], [ 124.590522236431298, 8.413029074626243 ], [ 124.590249826460195, 8.413030176522843 ], [ 124.588608734398093, 8.411409247282059 ], [ 124.588602840882999, 8.409962547910775 ], [ 124.588693643569499, 8.409962181145895 ], [ 124.588783709552303, 8.409780976946902 ], [ 124.588782972868998, 8.40960013953201 ], [ 124.588509091996897, 8.40923956489574 ], [ 124.588236316212303, 8.409150246172162 ], [ 124.588145881866396, 8.409241031534158 ], [ 124.587826784622493, 8.408925848934793 ] ], [ [ 124.601793270473607, 8.481792545665273 ], [ 124.600334180162307, 8.480351823999957 ], [ 124.600241490786203, 8.4799001071367 ], [ 124.598144070798, 8.477829055372164 ], [ 124.594965433766802, 8.477842059326575 ], [ 124.593141992803197, 8.476131532644024 ], [ 124.591961359072201, 8.47613634961729 ], [ 124.591780467048693, 8.476317926911763 ], [ 124.590145741362207, 8.476324590061857 ], [ 124.589874401642106, 8.476596954978385 ], [ 124.589877002730304, 8.477229883428285 ], [ 124.589696852268801, 8.477592296731883 ], [ 124.589424768416904, 8.477683824809869 ], [ 124.589060008778105, 8.477323630612887 ], [ 124.588878371943395, 8.477324370122066 ], [ 124.588330491536098, 8.476603240800758 ], [ 124.587876029001606, 8.476514669971266 ], [ 124.585596307882099, 8.474263436376061 ], [ 124.585588899370293, 8.472455065276838 ], [ 124.584676653270293, 8.471464147183536 ], [ 124.584495018797796, 8.471464884147409 ], [ 124.584130269834304, 8.471104683306926 ], [ 124.583585736587693, 8.471197311743515 ], [ 124.583133499274794, 8.471651246029138 ], [ 124.580227342169394, 8.471663016101902 ], [ 124.578677176562394, 8.470132139383294 ], [ 124.578404724991799, 8.470133240441305 ], [ 124.577766793854906, 8.469593295352789 ], [ 124.576949439810207, 8.469596595844358 ], [ 124.576584698647906, 8.469236386308934 ], [ 124.576578808931501, 8.467789682751008 ], [ 124.5772115802678, 8.46706376539767 ], [ 124.577206426002206, 8.465797900033941 ], [ 124.576294584460697, 8.464897374214431 ], [ 124.575568423551104, 8.464990722752102 ], [ 124.574930137772697, 8.464360351554321 ], [ 124.574021977613199, 8.464364009824195 ], [ 124.573566061325593, 8.463913742547563 ], [ 124.573656142838402, 8.463732538697105 ], [ 124.5739285905331, 8.463731441773634 ], [ 124.574742258921503, 8.462823959096795 ], [ 124.574739319633395, 8.462100606451074 ], [ 124.576005588601902, 8.460829616890413 ], [ 124.576004485718101, 8.460558359789479 ], [ 124.578446551061404, 8.458107158413783 ], [ 124.578445814903404, 8.457926320535329 ], [ 124.579259829522101, 8.457109251277908 ], [ 124.579441457727995, 8.457108517983356 ], [ 124.580345545452204, 8.456110242759902 ], [ 124.579889634666202, 8.455659982243645 ], [ 124.579888161453098, 8.455298306692647 ], [ 124.579158707202396, 8.454577888194525 ], [ 124.579156498716202, 8.454035374643443 ], [ 124.578153505205705, 8.453044795841581 ], [ 124.578152769631203, 8.452863957890823 ], [ 124.576237979104903, 8.450972842833389 ], [ 124.576236142887296, 8.450520747486678 ], [ 124.576053048751604, 8.45015980241082 ], [ 124.576051947245602, 8.44988854516861 ], [ 124.575777674107897, 8.449437546317192 ], [ 124.573042306821094, 8.446735924885886 ], [ 124.571498503036494, 8.446742122403936 ], [ 124.571407325072002, 8.446652067475755 ], [ 124.570953264997399, 8.44665388899327 ], [ 124.570772372528594, 8.446835456105445 ], [ 124.570590748369597, 8.446836184496872 ], [ 124.568676023044105, 8.44494501968177 ], [ 124.568655576642996, 8.439881531163977 ], [ 124.568563671177401, 8.439610636218855 ], [ 124.565189844351394, 8.436188122333325 ], [ 124.565188024237202, 8.435736024240564 ], [ 124.564732156072793, 8.435285738020857 ], [ 124.564728881253203, 8.434471961230036 ], [ 124.567080816886104, 8.432202045914245 ], [ 124.567898460574298, 8.432289199954779 ], [ 124.568442219480701, 8.432015763517068 ], [ 124.568987071698601, 8.432013584878574 ], [ 124.569167959530404, 8.431832019569359 ], [ 124.569531194060104, 8.431830566587335 ], [ 124.569621637812205, 8.431739783844241 ], [ 124.569348117600001, 8.431469615289979 ], [ 124.569335716989499, 8.428395353453221 ], [ 124.568788682831297, 8.42785501465924 ], [ 124.568601236491702, 8.426409028336892 ], [ 124.568146470865699, 8.426230003209065 ], [ 124.5676909772437, 8.425870138364338 ], [ 124.566414580707402, 8.424609338204931 ], [ 124.566413489294206, 8.424338079350488 ], [ 124.566322318504405, 8.424248021963383 ], [ 124.566318680974405, 8.423343825710166 ], [ 124.565862828913097, 8.422893538116616 ], [ 124.565409158868107, 8.422985767810266 ], [ 124.565044478217501, 8.422625536727402 ], [ 124.564227217997896, 8.422628792589164 ], [ 124.564136774483501, 8.422719573971962 ], [ 124.558052714227102, 8.422743757509139 ], [ 124.557141751494697, 8.422023998683043 ], [ 124.556414573612102, 8.421846037922682 ], [ 124.556049901011406, 8.421485796751833 ], [ 124.554869412297293, 8.421490471461116 ], [ 124.554504741256906, 8.421130228528398 ], [ 124.553233445914401, 8.421135257473413 ], [ 124.552595274886102, 8.420504828777599 ], [ 124.552591670852493, 8.419600626416861 ], [ 124.555756898459194, 8.416332929886286 ], [ 124.555752206114903, 8.415157468331328 ], [ 124.556204788663905, 8.414793990692944 ], [ 124.556293066756993, 8.414160690486042 ], [ 124.556201900691804, 8.414070629842774 ], [ 124.556199734881503, 8.413528109187078 ], [ 124.555014581817701, 8.412357317827141 ], [ 124.554922334693501, 8.411995996232676 ], [ 124.553919519713901, 8.411005322300516 ], [ 124.552920670534405, 8.411009267759566 ], [ 124.552009026842896, 8.410108649294269 ], [ 124.551736254085796, 8.410019303824354 ] ], [ [ 124.523208320819805, 8.406242634714088 ], [ 124.520929392668094, 8.403990874487194 ], [ 124.520656979963903, 8.403991927054477 ], [ 124.520383510505098, 8.403721714385618 ], [ 124.519747881083603, 8.403724169123539 ], [ 124.519474412362101, 8.403453955673745 ], [ 124.517476719771295, 8.403461662254424 ], [ 124.517477071322801, 8.403552084061063 ], [ 124.517023401360106, 8.403644255988395 ], [ 124.516749934252104, 8.403374040298367 ], [ 124.516748528773405, 8.403012352943621 ], [ 124.516383555689998, 8.402561643026358 ], [ 124.516382501932995, 8.402290377453557 ], [ 124.516200893874, 8.402291076948011 ], [ 124.516018583482307, 8.40211093261089 ], [ 124.515473759416494, 8.402113030295155 ], [ 124.515021142978995, 8.402476465451789 ], [ 124.514385513998803, 8.402478911172363 ], [ 124.5129382548308, 8.403931249521431 ], [ 124.512211818285706, 8.403934041183817 ], [ 124.511759896858507, 8.404478317554053 ], [ 124.5107606945638, 8.404391730918206 ], [ 124.510398175433707, 8.40457396918228 ], [ 124.510034956166706, 8.404575362943188 ], [ 124.508678127163293, 8.405936919082002 ], [ 124.508685120264303, 8.407745362289424 ], [ 124.508594664318395, 8.407836132655905 ], [ 124.508685819660101, 8.407926206600727 ], [ 124.508688967134105, 8.408740005980356 ], [ 124.508056122929304, 8.409465820690421 ], [ 124.507783704774695, 8.409466865024649 ], [ 124.507603141216705, 8.409738827721251 ], [ 124.507060051431296, 8.410193026710578 ], [ 124.506697175711494, 8.410284840541916 ], [ 124.506425804663095, 8.410557150750881 ], [ 124.505880966384098, 8.410559237241817 ], [ 124.505519137132396, 8.410922316915565 ], [ 124.503703355206696, 8.411019687415711 ], [ 124.503612897273001, 8.411110456959785 ], [ 124.502705179382005, 8.411204350149298 ], [ 124.500896006544394, 8.413019734763138 ], [ 124.500623585007801, 8.413020774575525 ], [ 124.4993575007679, 8.414381962307999 ], [ 124.4986310402073, 8.414384732325056 ], [ 124.498631387851702, 8.414475154869676 ], [ 124.498268504958304, 8.414566961949607 ], [ 124.497816204046202, 8.415020805031959 ] ], [ [ 124.497816204046202, 8.415020805031959 ], [ 124.496911599064802, 8.415928490157983 ], [ 124.495912710645499, 8.415932293065769 ], [ 124.4931077068712, 8.418565256774267 ], [ 124.493108746496404, 8.418836525036602 ], [ 124.492928861358493, 8.419289328942371 ], [ 124.492386085953996, 8.419833935551027 ], [ 124.491841231193405, 8.419836004859441 ], [ 124.491298107185798, 8.420290187526843 ], [ 124.491303992938199, 8.421827375433955 ], [ 124.491486304779102, 8.422007531447811 ], [ 124.491033987472605, 8.422461369444495 ], [ 124.491035718606895, 8.422913483552476 ], [ 124.490945254933095, 8.423004251126725 ], [ 124.491135359313802, 8.425218920469272 ] ], [ [ 124.497816204046202, 8.415020805031959 ], [ 124.495182777157297, 8.415030830395317 ], [ 124.494909659895299, 8.414851021102423 ], [ 124.494183196977701, 8.41485378305485 ], [ 124.493455001551098, 8.414404429873992 ], [ 124.493090384893705, 8.414044118499952 ], [ 124.491728268404898, 8.414049289265893 ], [ 124.491545960844405, 8.413869132664106 ], [ 124.490093036184504, 8.413874642159964 ], [ 124.490002573982395, 8.413965409229828 ], [ 124.489003687433396, 8.413969193707018 ], [ 124.488460221123503, 8.41433294876712 ], [ 124.487736863201206, 8.41514950558434 ], [ 124.487373630303793, 8.415150880150327 ], [ 124.487191323797205, 8.414970721277003 ], [ 124.486918899187103, 8.41497175183321 ], [ 124.486554976594903, 8.41479227953006 ], [ 124.486553252349793, 8.414340164310874 ], [ 124.486279793789507, 8.414069925178051 ], [ 124.48627772527, 8.413527386825812 ], [ 124.485457353205504, 8.412716667643494 ], [ 124.4849125066699, 8.412718725617266 ], [ 124.484822732029301, 8.412990337908662 ], [ 124.484099023063493, 8.413716465826884 ], [ 124.484190863908395, 8.413987392464538 ], [ 124.484193618246096, 8.414710777601435 ], [ 124.484103498563798, 8.414891966725691 ], [ 124.484286492545905, 8.415252973555873 ], [ 124.484287525617901, 8.415524242956204 ], [ 124.484016477490997, 8.415886964140203 ], [ 124.483835204673596, 8.415978072955761 ], [ 124.483381161770296, 8.415979786772645 ], [ 124.483200232849001, 8.41616131850275 ], [ 124.482292146257393, 8.416164744219827 ], [ 124.481745575163899, 8.41571468246698 ], [ 124.480928297644695, 8.415717762520384 ], [ 124.480747711042795, 8.415989716576593 ], [ 124.480112050040404, 8.415992110784673 ], [ 124.479659036295701, 8.41626509026519 ], [ 124.478568987231696, 8.416178767744121 ], [ 124.478388055604796, 8.416360297660542 ], [ 124.478207466806097, 8.416632250898823 ], [ 124.478208838830994, 8.416993944405162 ], [ 124.477937440563693, 8.417266239140837 ], [ 124.477938126495701, 8.41744708591118 ], [ 124.477124271926002, 8.418354392837964 ], [ 124.4770365478537, 8.419168544930164 ], [ 124.476674680464598, 8.419531603968696 ], [ 124.476676051546093, 8.419893297672994 ], [ 124.476404993083193, 8.420256015279563 ], [ 124.476405678551004, 8.420436862148005 ], [ 124.476044837522707, 8.421071191226359 ], [ 124.476046893672105, 8.421613731892537 ], [ 124.475775490975394, 8.421886025889146 ], [ 124.475776518946205, 8.422157296246013 ], [ 124.475414647887007, 8.422520354751901 ], [ 124.475505458327802, 8.422520013607683 ], [ 124.475507171448996, 8.422972130907672 ], [ 124.475235082371498, 8.423063577802946 ], [ 124.474962308114797, 8.422974177569701 ], [ 124.474419841403403, 8.42360918799028 ], [ 124.472248247357598, 8.425697107132088 ], [ 124.472067650581806, 8.425969058907585 ], [ 124.472072780388899, 8.427325412645132 ], [ 124.471710901312207, 8.42768846906581 ], [ 124.470984406790393, 8.427691192272182 ], [ 124.470893936716806, 8.427781956204017 ], [ 124.470349065516601, 8.427783997623415 ], [ 124.470258595251494, 8.427874761437492 ], [ 124.469621545991004, 8.427515447307195 ], [ 124.4686226154639, 8.427519185977401 ], [ 124.4686222742436, 8.427428762258126 ], [ 124.468167532648394, 8.427249613318757 ], [ 124.467804626270294, 8.427341395494693 ], [ 124.467531849656694, 8.42725199033781 ], [ 124.4673495440869, 8.427071821752186 ], [ 124.466441766250099, 8.427165639025489 ], [ 124.466351295036503, 8.427256402073006 ], [ 124.466260142455297, 8.427166317473722 ], [ 124.465806082902105, 8.427168013226977 ], [ 124.465077885542797, 8.426718606011486 ], [ 124.464074873681895, 8.425637245851133 ], [ 124.462894322124598, 8.42564164635502 ], [ 124.462712019213697, 8.425461475104235 ], [ 124.461803902542599, 8.425464857200426 ], [ 124.461668194297602, 8.425601000349937 ] ], [ [ 124.597809472074204, 8.517660188438347 ], [ 124.598035227281301, 8.517342792150755 ], [ 124.598671394643404, 8.517430594166365 ], [ 124.598761846593604, 8.517339802627978 ], [ 124.599032826670694, 8.516977010171786 ], [ 124.598939746475395, 8.516434877393973 ], [ 124.599030198160406, 8.516344085843503 ], [ 124.599303430704097, 8.516523799864771 ], [ 124.599575912228303, 8.516522678170597 ], [ 124.5997583178968, 8.516702765726812 ], [ 124.599939972294294, 8.516702017723688 ], [ 124.601115086036202, 8.515340888561379 ], [ 124.603294928553495, 8.515331900740112 ], [ 124.604108602744404, 8.514424351718656 ], [ 124.604107472983898, 8.514153099078404 ], [ 124.604015893463796, 8.513972638849465 ], [ 124.603925067092604, 8.513973013695001 ], [ 124.603923937522097, 8.513701761023983 ], [ 124.604014387292906, 8.513610968636717 ], [ 124.604101824741093, 8.512796835818277 ], [ 124.604283476909103, 8.512796086126178 ], [ 124.604916622497399, 8.512160538902148 ], [ 124.604915115806307, 8.511798868816069 ], [ 124.605184579543405, 8.511074403710902 ], [ 124.6055478820453, 8.511072903531378 ], [ 124.605638330860899, 8.510982110939734 ], [ 124.6055441144497, 8.510168728533632 ], [ 124.604996902357598, 8.509628473268229 ], [ 124.604981089396802, 8.505830936673465 ], [ 124.606066462279699, 8.504741428424248 ], [ 124.606054036163201, 8.501757650559821 ], [ 124.606234176896805, 8.501395230877341 ], [ 124.606226271177306, 8.499496463031656 ], [ 124.606406787523397, 8.499224460969922 ], [ 124.606495728008795, 8.498771998633345 ], [ 124.607128850563996, 8.49813645232245 ], [ 124.607310495555893, 8.498135702499539 ], [ 124.608305774462593, 8.497227402593424 ], [ 124.608300876357205, 8.496051975851373 ], [ 124.607753684877295, 8.495511721083654 ], [ 124.607027109907605, 8.495514719775205 ], [ 124.6061151288758, 8.494614290771366 ], [ 124.6068383155514, 8.49379753643216 ], [ 124.606834928961504, 8.492983778733148 ], [ 124.606014152550003, 8.492173391180954 ], [ 124.606011520368, 8.491540468219632 ], [ 124.605829126432795, 8.491360381707855 ], [ 124.605738681407701, 8.491451173568313 ], [ 124.605466218419494, 8.491452296294312 ], [ 124.604736644721399, 8.490731948290428 ], [ 124.604727629673505, 8.488561925095171 ], [ 124.604998588192004, 8.488199132756096 ], [ 124.604991076534702, 8.486390780109609 ], [ 124.604170319876403, 8.485580385083528 ], [ 124.603715846218805, 8.485491835380769 ], [ 124.603442261762495, 8.485221702780859 ], [ 124.603079733307396, 8.485404031931337 ], [ 124.602167788054899, 8.484503587088012 ], [ 124.602165539351205, 8.483961080454591 ], [ 124.601983151114496, 8.483780991076735 ], [ 124.601981277562203, 8.483328902158927 ], [ 124.601798515101393, 8.483058394824091 ], [ 124.601793270473607, 8.481792545665273 ] ] ] } }
]
}
