{
"type": "FeatureCollection",
"name": "SELECT",
"crs": { "type": "name", "properties": { "name": "urn:ogc:def:crs:OGC:1.3:CRS84" } },
"features": [
{ "type": "Feature", "properties": { "Name": "1", "description": null, "altitudeMode": "clampToGround", "Shape_Le_3": "1.209114", "OBJECTID_1": "1", "OBJECTID_3": "0", "OBJECTID_2": "0", "FID": "0", "Shape_Leng": "0", "Shape_Le_1": "0", "Shape_Le_2": "0", "gridcode": "0", "Id": "0", "Field_1": "1" }, "geometry": { "type": "MultiPolygon", "coordinates": [ [ [ [ 124.603931052875893, 8.518673937752055 ], [ 124.603931052875893, 8.518951691567338 ], [ 124.602110256683105, 8.51882820745584 ], [ 124.600875756411099, 8.518673937752055 ], [ 124.600875756411099, 8.518396183037453 ], [ 124.600598001696497, 8.518396183037453 ], [ 124.600379785698607, 8.517964836707904 ], [ 124.599764739351301, 8.517840674507568 ], [ 124.599209230821401, 8.517840674507568 ], [ 124.599209230821401, 8.51811842922217 ], [ 124.598653722291502, 8.51811842922217 ], [ 124.598653722291502, 8.518673937752055 ], [ 124.597264951416506, 8.518673937752055 ], [ 124.595876180541396, 8.518673937752055 ], [ 124.595752018341102, 8.518058890505415 ], [ 124.595320672011397, 8.517840674507568 ], [ 124.594951779101393, 8.518027291026726 ], [ 124.594765163481597, 8.518396183037453 ], [ 124.594209654951698, 8.518396183037453 ], [ 124.593931900237095, 8.518008642684777 ], [ 124.593654146421699, 8.518396183037453 ], [ 124.593098637891899, 8.51811842922217 ], [ 124.592727575816994, 8.517933982767147 ], [ 124.5919876208321, 8.517840674507568 ], [ 124.591709867016803, 8.518396183037453 ], [ 124.590321096141807, 8.518396183037453 ], [ 124.5902045287161, 8.517757605928807 ], [ 124.590043341427105, 8.51811842922217 ], [ 124.589765587611893, 8.51811842922217 ], [ 124.589765587611893, 8.517840674507568 ], [ 124.589210079081894, 8.517840674507568 ], [ 124.588932324367306, 8.517840674507568 ], [ 124.588932324367306, 8.51811842922217 ], [ 124.588376815837506, 8.51811842922217 ], [ 124.588099062022096, 8.51811842922217 ], [ 124.587899290220093, 8.517487446888197 ], [ 124.586010615897294, 8.516596070352421 ], [ 124.583663267545802, 8.513548639358248 ], [ 124.583099486152406, 8.514507624227519 ], [ 124.582511699155702, 8.514733570797716 ], [ 124.581545323657807, 8.514165449276106 ], [ 124.581590689059098, 8.513800625798297 ], [ 124.581278689959603, 8.513550877770854 ], [ 124.581031722635998, 8.512409074219477 ], [ 124.580723182329095, 8.512162105996424 ], [ 124.580157230871606, 8.511230313927911 ], [ 124.5793498042501, 8.511330742120094 ], [ 124.577347952945701, 8.51108173963064 ], [ 124.577424375534505, 8.510467574618929 ], [ 124.577041853398896, 8.510161272724588 ], [ 124.576256737158701, 8.510258920213062 ], [ 124.575600122347893, 8.5094389489484 ], [ 124.574335445324607, 8.511018200729438 ], [ 124.574035584374798, 8.512067035065684 ], [ 124.572721134372998, 8.512620915822652 ], [ 124.572421341771602, 8.512995369240969 ], [ 124.571477411553403, 8.513242336564645 ], [ 124.570976016130302, 8.512616304998517 ], [ 124.571153680797806, 8.511188407319196 ], [ 124.569665837908104, 8.510561493518139 ], [ 124.568954024508699, 8.509672626090889 ], [ 124.568378512358606, 8.509508048357816 ], [ 124.568163279411905, 8.508810950564964 ], [ 124.567408203225995, 8.50796588821521 ], [ 124.566211066187904, 8.508802067061822 ], [ 124.5644704238711, 8.506853989819831 ], [ 124.563816724662203, 8.506892981725798 ], [ 124.563247857602605, 8.506583830779221 ], [ 124.562398998315203, 8.50632167300688 ], [ 124.562136840542905, 8.505750567534733 ], [ 124.561529049925795, 8.504880415898526 ], [ 124.561025823483106, 8.503250779599853 ], [ 124.560679851593903, 8.502941629552595 ], [ 124.561133236709594, 8.500819277187929 ], [ 124.559973734500304, 8.50008183221081 ], [ 124.559621455665706, 8.499100063017522 ], [ 124.559359297893394, 8.497973449914809 ], [ 124.558469549130507, 8.497698679150744 ], [ 124.557970527018298, 8.497140186670322 ], [ 124.5575831224631, 8.496794011534462 ], [ 124.557955134222098, 8.495194958480624 ], [ 124.558567400765, 8.495231440378745 ], [ 124.559571275294203, 8.49410787867572 ], [ 124.560732472725505, 8.493574951223081 ], [ 124.560470314953093, 8.492418365515221 ], [ 124.559637052607997, 8.49203591082869 ], [ 124.559899210380294, 8.491307348455393 ], [ 124.560773498897902, 8.490751297634347 ], [ 124.561287981255404, 8.489085314335853 ], [ 124.561995861020307, 8.488071878214669 ], [ 124.563509404735299, 8.485286604992893 ], [ 124.562130601945796, 8.484917305589249 ], [ 124.558995288302, 8.485474509341202 ], [ 124.5587831751035, 8.485205978073452 ], [ 124.559081544077998, 8.484656843938239 ], [ 124.559443519403004, 8.483484728737267 ], [ 124.559899210380294, 8.482974721406322 ], [ 124.561010227440093, 8.482464782423847 ], [ 124.560669883508396, 8.481323792758872 ], [ 124.559583345994696, 8.481595443774779 ], [ 124.558850647639403, 8.482415483387911 ], [ 124.557720100902003, 8.482482887575259 ], [ 124.557283939602101, 8.481994783232722 ], [ 124.5568439139156, 8.481601547473474 ], [ 124.556581756143203, 8.481030442001327 ], [ 124.555732896855702, 8.480768284228986 ], [ 124.555470739083404, 8.480474933471442 ], [ 124.554899634510605, 8.480212775699101 ], [ 124.554416819080998, 8.479160889963168 ], [ 124.549168037475098, 8.479473770398215 ], [ 124.548804637624002, 8.477141883191393 ], [ 124.548233533051203, 8.476324216889168 ], [ 124.5479381480271, 8.474115542198547 ], [ 124.547237523992607, 8.473331442192375 ], [ 124.546582604403696, 8.472975569666858 ], [ 124.543841408754005, 8.472463935462315 ], [ 124.542874015223703, 8.471938263739901 ], [ 124.541500977088504, 8.473903971291293 ], [ 124.541027520004207, 8.474935446014058 ], [ 124.540456414532002, 8.47575311231634 ], [ 124.540094439207095, 8.476925226617936 ], [ 124.539407851790997, 8.477693662232753 ], [ 124.539075441678406, 8.477713462606289 ], [ 124.538526985632004, 8.477680777645844 ], [ 124.538249977354695, 8.477990742478823 ], [ 124.537401118067194, 8.478530654066503 ], [ 124.536208185359598, 8.479363916411671 ], [ 124.535179084847002, 8.479101759538594 ], [ 124.534639172360002, 8.478808408781106 ], [ 124.5324232419391, 8.47829284094189 ], [ 124.531961041668794, 8.477775509532194 ], [ 124.530823781492401, 8.477157479234336 ], [ 124.527034565392896, 8.477503994313963 ], [ 124.525735440738103, 8.479363916411671 ], [ 124.5249880267761, 8.481308196715929 ], [ 124.5225177366043, 8.480603639046763 ], [ 124.521569127213496, 8.479379513353933 ], [ 124.520942078514196, 8.478393608178521 ], [ 124.5201803563384, 8.477712987764221 ], [ 124.519827942605502, 8.476198359466764 ], [ 124.518798976991206, 8.475278977143148 ], [ 124.518178573382599, 8.473927297906528 ], [ 124.515736288998596, 8.473546675139005 ], [ 124.5149186226963, 8.472975569666858 ], [ 124.512837297403394, 8.472332856576145 ], [ 124.511936494173895, 8.471324641019407 ], [ 124.510993852684194, 8.471592629995939 ], [ 124.510369719587004, 8.474275101714625 ], [ 124.508792433723897, 8.474642095256513 ], [ 124.507908041323205, 8.47525985395913 ], [ 124.506849713743406, 8.475196721551526 ], [ 124.505314741881904, 8.476030866131623 ], [ 124.503872467640406, 8.475639663739514 ], [ 124.503530700081797, 8.473808832012026 ], [ 124.502638916153202, 8.473241660174551 ], [ 124.501262961516602, 8.47107821508763 ], [ 124.5002110074321, 8.47101549007283 ], [ 124.499629392482603, 8.471331557705298 ], [ 124.498808878027404, 8.469364764672207 ], [ 124.498385737112102, 8.468586090275892 ], [ 124.499015905559702, 8.467213187039022 ], [ 124.5001820528595, 8.466309468207442 ], [ 124.501015315204697, 8.465927013520911 ], [ 124.500683854776199, 8.463600890069074 ], [ 124.498276425416805, 8.464245638325622 ], [ 124.497011273551493, 8.462829742098961 ], [ 124.496348284345899, 8.462237276828887 ], [ 124.495737984620405, 8.460769980750058 ], [ 124.495198073032697, 8.459365612932743 ], [ 124.494626968459897, 8.459103455160403 ], [ 124.494130591253807, 8.458547946630461 ], [ 124.4934344422458, 8.458844823629761 ], [ 124.492682688155597, 8.459921121462628 ], [ 124.492420531282505, 8.460769980750058 ], [ 124.491293917280501, 8.461032138522398 ], [ 124.490453195958295, 8.461619382328706 ], [ 124.489676758176003, 8.461573067243307 ], [ 124.489349637875506, 8.461865400867623 ], [ 124.488547839211506, 8.462762812753681 ], [ 124.486865445983696, 8.46158764705234 ], [ 124.485461079065701, 8.460769980750058 ], [ 124.484087904233405, 8.459643366748026 ], [ 124.482683536416204, 8.458825701345063 ], [ 124.481343182342002, 8.457889433350715 ], [ 124.479166514523101, 8.458472472826429 ], [ 124.478794977606199, 8.45743692957069 ], [ 124.478368513696097, 8.45605588926793 ], [ 124.477963274685393, 8.456031680417766 ], [ 124.476939462186493, 8.45658807028326 ], [ 124.475012678192599, 8.45616709943215 ], [ 124.474290557663196, 8.455358926373378 ], [ 124.473533243964098, 8.455770404880354 ], [ 124.472684384676697, 8.456032561753375 ], [ 124.471785345017693, 8.456355139578079 ], [ 124.471018130682296, 8.456309366783898 ], [ 124.470591395176797, 8.457691356770738 ], [ 124.469468647360301, 8.457758287015395 ], [ 124.467962562622205, 8.456881421040805 ], [ 124.466210730940603, 8.455798410668194 ], [ 124.465470572708796, 8.455754333096024 ], [ 124.464944427043804, 8.455785661878849 ], [ 124.464346265467796, 8.454929343614367 ], [ 124.464922863099702, 8.454103879290642 ], [ 124.465185020872099, 8.453532773818495 ], [ 124.465823665429895, 8.452618477161025 ], [ 124.465478371629601, 8.451866249128159 ], [ 124.464907266157496, 8.451048582825877 ], [ 124.464645108385099, 8.449088706478676 ], [ 124.4640740038122, 8.448826548706279 ], [ 124.463534092224705, 8.448533197948791 ], [ 124.460770179700205, 8.448017291065185 ], [ 124.459367778700098, 8.446866673258398 ], [ 124.457685656168096, 8.446604515486058 ], [ 124.455937486525798, 8.445383441192917 ], [ 124.454090448115707, 8.445493498426288 ], [ 124.453943773186694, 8.445624577312458 ], [ 124.452219472450807, 8.443694741019556 ], [ 124.451146294365998, 8.443202161650504 ], [ 124.4499085385482, 8.441604939616298 ], [ 124.449646380775903, 8.441033834144207 ], [ 124.449075275303798, 8.44077167637181 ], [ 124.448257609900807, 8.440200571798982 ], [ 124.446853242083506, 8.439938414026642 ], [ 124.445480067251296, 8.439089554739212 ], [ 124.441655792880596, 8.438691029167728 ], [ 124.440439126164904, 8.438132604136399 ], [ 124.440494324753303, 8.437207119013408 ], [ 124.439604304395203, 8.435807769413088 ], [ 124.438233163829494, 8.434273204045155 ], [ 124.435807087027499, 8.432512488860311 ], [ 124.434655654435005, 8.430393596187571 ], [ 124.434363185012998, 8.428206959383715 ], [ 124.432754502918002, 8.428302845100291 ], [ 124.432175802671196, 8.427785785285835 ], [ 124.431592356701898, 8.42686836888015 ], [ 124.431146837057, 8.426470249802207 ], [ 124.429605626598502, 8.424263812624929 ], [ 124.429664690473203, 8.423272414390453 ], [ 124.428955454530595, 8.422638652252033 ], [ 124.428097033651298, 8.421058924729664 ], [ 124.427703796992702, 8.420202267420734 ], [ 124.426881180821894, 8.419824695153579 ], [ 124.426847275481506, 8.419256235486955 ], [ 124.427132692419804, 8.417424725670628 ], [ 124.427952188842497, 8.417048577030243 ], [ 124.4274104462352, 8.416051550838461 ], [ 124.427125300891902, 8.415430265894088 ], [ 124.426577183890004, 8.414940533778633 ], [ 124.426315026117706, 8.413536165961318 ], [ 124.4258914778095, 8.411553709436191 ], [ 124.426561044656495, 8.410321514126622 ], [ 124.426854937705201, 8.409369853336102 ], [ 124.427149170697703, 8.408828381424712 ], [ 124.427070780392199, 8.407514134669611 ], [ 124.427839216007101, 8.406414102828649 ], [ 124.4274104462352, 8.405219135854509 ], [ 124.426948652458506, 8.403723765639313 ], [ 124.426037271403104, 8.402703751876686 ], [ 124.424231394962902, 8.402009501337488 ], [ 124.422971125517094, 8.400027857799444 ], [ 124.419940241149206, 8.399462110488059 ], [ 124.419321261167298, 8.397852071316095 ], [ 124.418195326153395, 8.397240212166082 ], [ 124.417002461794297, 8.39701758859087 ], [ 124.416714399949697, 8.396010051123028 ], [ 124.415312066398798, 8.394887099160371 ], [ 124.415121042302303, 8.393351110165668 ], [ 124.415534216031404, 8.390788054924826 ], [ 124.4142633678603, 8.389770346124635 ], [ 124.414420282470104, 8.388508314007538 ], [ 124.413638692471807, 8.387882417339711 ], [ 124.413197309708195, 8.386338833570335 ], [ 124.410958051772695, 8.386012865301552 ], [ 124.410119839559002, 8.384865366343604 ], [ 124.410339208487699, 8.383101396512302 ], [ 124.409912744577596, 8.382089248220268 ], [ 124.408249473634299, 8.381388420938947 ], [ 124.4074045479815, 8.37995109656589 ], [ 124.407157579758504, 8.378253785383947 ], [ 124.406571284737097, 8.376895800101124 ], [ 124.406324316514102, 8.37603175126435 ], [ 124.406015776207099, 8.375507029226071 ], [ 124.405731037357597, 8.374511020167517 ], [ 124.404627005332202, 8.373840503636359 ], [ 124.403824528579193, 8.373254209514187 ], [ 124.403042870232298, 8.372924850801269 ], [ 124.402589350218406, 8.371848688766022 ], [ 124.4021580038889, 8.371309930109248 ], [ 124.402003733285696, 8.371186445997751 ], [ 124.402139830388904, 8.371044788386314 ], [ 124.402423144712401, 8.370772595079245 ], [ 124.402695338918903, 8.370489279856429 ], [ 124.403250847448703, 8.369955538517331 ], [ 124.4029006703297, 8.369570168228734 ], [ 124.402417448406595, 8.369105933691912 ], [ 124.402428501973901, 8.368565886306669 ], [ 124.402139830388904, 8.367439543899877 ], [ 124.401867636182502, 8.365767457802008 ], [ 124.401584186061399, 8.364939416920606 ], [ 124.401589949816398, 8.364659221445947 ], [ 124.401578625553199, 8.364103712916062 ], [ 124.401608937202695, 8.362616412317607 ], [ 124.401312127652702, 8.360490128116965 ], [ 124.400059318083095, 8.360083600377891 ], [ 124.397140254519201, 8.356884883630528 ], [ 124.396570980066699, 8.356016630463159 ], [ 124.395757043252999, 8.355234564723446 ], [ 124.396029237459402, 8.354379535187434 ], [ 124.396586847704995, 8.353843827031028 ], [ 124.396862499804598, 8.352713009597778 ], [ 124.397417059549795, 8.351092799093465 ], [ 124.397437809607297, 8.350077124559675 ], [ 124.397389663502295, 8.347720350413908 ], [ 124.398815595263599, 8.347372750751902 ], [ 124.400658090298606, 8.34560247487434 ], [ 124.400773640591098, 8.339942350559056 ], [ 124.400337207695998, 8.339933399606764 ], [ 124.399662826778098, 8.339947165529338 ], [ 124.399628582393206, 8.338269925416796 ], [ 124.400472829957195, 8.337458769306807 ], [ 124.400489850526199, 8.3366260492528 ], [ 124.400201111492194, 8.336325510214181 ], [ 124.398523125841606, 8.335225410924011 ], [ 124.398540282208302, 8.334386791317399 ], [ 124.397418008334498, 8.334658985523788 ], [ 124.396363952534401, 8.335202016859625 ], [ 124.395219844020602, 8.33522534347486 ], [ 124.393537519141205, 8.33422668951016 ], [ 124.393526533922497, 8.333689626075454 ], [ 124.393551149266202, 8.332484147825198 ], [ 124.393240912837896, 8.331577649189228 ], [ 124.393273733596004, 8.329969102891823 ], [ 124.392702425776406, 8.328860187547662 ], [ 124.392696118830798, 8.328551172398761 ], [ 124.392704663289706, 8.328134541675809 ], [ 124.392685201061198, 8.327182406043278 ], [ 124.392973940994693, 8.326881867004602 ], [ 124.393257255318204, 8.326609673697533 ], [ 124.393529449524493, 8.325493096129549 ], [ 124.394804094633301, 8.323914046695961 ], [ 124.393535010032807, 8.322041783201769 ], [ 124.393807203339904, 8.320771274075071 ], [ 124.394320126272902, 8.319272716662567 ], [ 124.393589394734803, 8.317854312226757 ], [ 124.394153040330593, 8.316117535196156 ], [ 124.395201535622405, 8.315777258713581 ], [ 124.396029237459402, 8.315493944390084 ], [ 124.397472460485702, 8.315142140397484 ], [ 124.398538790233005, 8.314117582360609 ], [ 124.397934457509194, 8.312351781509562 ], [ 124.398287889274698, 8.310626192944483 ], [ 124.398245575273094, 8.308552868919833 ], [ 124.3982569669855, 8.307994783832271 ], [ 124.3977013235573, 8.306916248486118 ], [ 124.398554929466499, 8.30573681010577 ], [ 124.399323907372505, 8.304997940602505 ], [ 124.400751059513794, 8.303272758531023 ], [ 124.401284325111504, 8.302760377889172 ], [ 124.401590832051298, 8.302165470959778 ], [ 124.401042376004995, 8.300025420836562 ], [ 124.402413584019797, 8.299580511831209 ], [ 124.402437385477, 8.298414839373379 ], [ 124.402412159493693, 8.297179186170581 ], [ 124.403664765816302, 8.29587544979222 ], [ 124.404089602853006, 8.297184746678738 ], [ 124.405614538280403, 8.297153621142741 ], [ 124.406308923717901, 8.297167793558856 ], [ 124.406863482563693, 8.297156469295658 ], [ 124.407708951407002, 8.298446100707054 ], [ 124.408817187763006, 8.297719505151065 ], [ 124.408800506238407, 8.296901431455922 ], [ 124.409283932307702, 8.29639827336166 ], [ 124.411033525576798, 8.296056709049935 ], [ 124.411452802105202, 8.295620277054184 ], [ 124.412232765230002, 8.296432111252955 ], [ 124.412976381354994, 8.296048978477643 ], [ 124.413772347915597, 8.297263068635743 ], [ 124.416252877768102, 8.296458150223486 ], [ 124.416866364691003, 8.294945691990165 ], [ 124.417241970140793, 8.293788224946695 ], [ 124.419007770991897, 8.29321522100571 ], [ 124.419366152625898, 8.292168150240002 ], [ 124.419816825386206, 8.290779378465572 ], [ 124.421193119067198, 8.291087512278921 ], [ 124.421593543107605, 8.291912976602646 ], [ 124.423113053824395, 8.291881919415118 ], [ 124.423532330352799, 8.29189053132302 ], [ 124.424445813123796, 8.291271280645162 ], [ 124.426295632237697, 8.290373868759104 ], [ 124.426324248665196, 8.2889711961638 ], [ 124.426300853701505, 8.287826748605596 ], [ 124.4265986120364, 8.284478711123654 ], [ 124.428800709085493, 8.279559627275034 ], [ 124.428809864183904, 8.279110921332006 ], [ 124.428771821962101, 8.277247676239313 ], [ 124.429198624916694, 8.276367894662656 ], [ 124.431029049251293, 8.276330530529606 ], [ 124.432386288096794, 8.276358265621525 ], [ 124.432698355544701, 8.276058404671687 ], [ 124.432970548851799, 8.275219581818305 ], [ 124.433519818784703, 8.274691875829433 ], [ 124.433531685339105, 8.274111345462245 ], [ 124.433514664770001, 8.273278964452686 ], [ 124.435177325073596, 8.272739459358604 ], [ 124.436025845316493, 8.27216428535354 ], [ 124.437679554667696, 8.271627628412375 ], [ 124.438253574842605, 8.270780939189024 ], [ 124.438225298358901, 8.269395151365188 ], [ 124.440475473164597, 8.268559040867103 ], [ 124.441036203158305, 8.268270166035393 ], [ 124.441586286977696, 8.268281422849441 ], [ 124.442360417998998, 8.26788262568266 ], [ 124.444300086579801, 8.268546496223848 ], [ 124.4456818049714, 8.268574705258516 ], [ 124.446586066094099, 8.268281287051821 ], [ 124.447978499008599, 8.267436902790905 ], [ 124.449083074224504, 8.267459416419001 ], [ 124.450332968192001, 8.267433919739631 ], [ 124.451729876133001, 8.267462400369538 ], [ 124.452423244437199, 8.266033281410841 ], [ 124.453242266917201, 8.265246401600223 ], [ 124.453774313034202, 8.264149692754188 ], [ 124.455073166093797, 8.262797811170117 ], [ 124.456398194820906, 8.26192908316068 ], [ 124.456029710202998, 8.259665345679196 ], [ 124.455196446958595, 8.258864767395153 ], [ 124.455468641164899, 8.256887803029713 ], [ 124.456301903510095, 8.255658524221587 ], [ 124.456029710202998, 8.255221278339377 ], [ 124.454907503778401, 8.253831082938177 ], [ 124.454946970526294, 8.251897381359129 ], [ 124.453275290921994, 8.251354960662979 ], [ 124.452693201130401, 8.250795655195361 ], [ 124.452418905208305, 8.249110685409846 ], [ 124.452135589985602, 8.248560737388175 ], [ 124.451858175214596, 8.247139619697748 ], [ 124.450482898666905, 8.245818253010043 ], [ 124.4498173320044, 8.244130842464472 ], [ 124.448252591683897, 8.243104928249863 ], [ 124.448802539705497, 8.240222549830833 ], [ 124.449363743641896, 8.239394712196258 ], [ 124.449352826771602, 8.238861513148379 ], [ 124.449635802050693, 8.238278270425894 ], [ 124.450746819110506, 8.236639276681331 ], [ 124.450474624904103, 8.235778482491014 ], [ 124.449695069172193, 8.234628474424596 ], [ 124.450191310580607, 8.234111956901359 ], [ 124.450474624904103, 8.23383976359429 ], [ 124.451024641274202, 8.233000804943231 ], [ 124.451840612354403, 8.233017486467872 ], [ 124.452686351893703, 8.232204905831793 ], [ 124.452968853230004, 8.231334415151196 ], [ 124.455190886450296, 8.229199518143275 ], [ 124.454918693143199, 8.22716810162666 ], [ 124.454085429898797, 8.225938821919158 ], [ 124.4543576241051, 8.225501576036947 ], [ 124.455968273017504, 8.224307626196037 ], [ 124.456301903510095, 8.22327954281667 ], [ 124.456586506562104, 8.22244817804102 ], [ 124.455751955488395, 8.22121699986468 ], [ 124.457585227975997, 8.218272032228526 ], [ 124.458387840526498, 8.218288443057247 ], [ 124.459346350553702, 8.218268845031218 ], [ 124.46019046232, 8.218841035085745 ], [ 124.461448697499506, 8.219249325496037 ], [ 124.463188865873605, 8.219844978862739 ], [ 124.464917844882706, 8.218563281270463 ], [ 124.465190038189803, 8.218279966047646 ], [ 124.466028861942505, 8.217730018925295 ], [ 124.466331774292001, 8.216796599083807 ], [ 124.467808902658803, 8.21570158545984 ], [ 124.469062391216397, 8.214396967745927 ], [ 124.469437386026598, 8.21508552197929 ], [ 124.469911860244196, 8.216063493335582 ], [ 124.470750683097705, 8.217168949887196 ], [ 124.471167925359495, 8.218454647663918 ], [ 124.473329403629094, 8.219919842027139 ], [ 124.474884311661796, 8.219118789800348 ], [ 124.4757502598667, 8.219390983107417 ], [ 124.476855715518894, 8.220229806860175 ], [ 124.478047970137794, 8.220520444363046 ], [ 124.480204092045298, 8.221258432530703 ], [ 124.480177442435107, 8.219951984696365 ], [ 124.481013213888801, 8.219546541539728 ], [ 124.481030505153697, 8.218699378373685 ], [ 124.481021961594394, 8.218282746751413 ], [ 124.481033014262295, 8.217740393504414 ], [ 124.480622689585502, 8.216541561244128 ], [ 124.482960747940197, 8.214108092914216 ], [ 124.483952349421401, 8.213155414990467 ], [ 124.485164269515494, 8.211893992613739 ], [ 124.488165181278205, 8.211600438609423 ], [ 124.488521392848, 8.21050284842778 ], [ 124.489102872899394, 8.210220754484283 ], [ 124.490177339712602, 8.209102413345761 ], [ 124.491718346924202, 8.209133877926149 ], [ 124.492955085608699, 8.209108651942756 ], [ 124.493798723432405, 8.209397391876166 ], [ 124.495512377094499, 8.209676366970825 ], [ 124.497147709699107, 8.210236078931928 ], [ 124.498761342561906, 8.210203190724712 ], [ 124.499354011078793, 8.210508544733614 ], [ 124.501282152149699, 8.210469146334106 ], [ 124.501855969077695, 8.211066358225878 ], [ 124.502964612826602, 8.210225093713177 ], [ 124.503546092877997, 8.20994299976968 ], [ 124.505385264918104, 8.208028760418983 ], [ 124.506688390656805, 8.207605891099035 ], [ 124.508096013120607, 8.206253466324483 ], [ 124.508530004356302, 8.204916096200918 ], [ 124.509358520079701, 8.20412006129186 ], [ 124.510128176074602, 8.202533621229691 ], [ 124.510758412870501, 8.201603863427579 ], [ 124.510725117270496, 8.199972396109217 ], [ 124.512408256036196, 8.198559416384001 ], [ 124.513167130059102, 8.198191269911206 ], [ 124.513933124014599, 8.196612357174615 ], [ 124.514631985377804, 8.195255796417939 ], [ 124.514941542818093, 8.19335396591282 ], [ 124.516857883884299, 8.192732138677286 ], [ 124.517407831905999, 8.19244882345447 ], [ 124.518249435463204, 8.192040533044235 ], [ 124.519077138199506, 8.191614137482532 ], [ 124.519629866025497, 8.191898875432798 ], [ 124.520484489067897, 8.19217622365386 ], [ 124.5210294188727, 8.192743395491334 ], [ 124.522373977277297, 8.192715931994712 ], [ 124.523483705608598, 8.193254284157945 ], [ 124.523801740058303, 8.193559840514297 ], [ 124.524156392203906, 8.195014659399078 ], [ 124.526579281808495, 8.194676418082281 ], [ 124.527898546780506, 8.19399681570053 ], [ 124.528245807398207, 8.194670857574067 ], [ 124.528745778295104, 8.195701382612754 ], [ 124.529629017765103, 8.196620697487276 ], [ 124.529912332987806, 8.196892891693665 ], [ 124.530184526294903, 8.197176206017161 ], [ 124.530603937721594, 8.197312303120327 ], [ 124.531228614009393, 8.197912498962694 ], [ 124.532442839065894, 8.199443944582413 ], [ 124.5329676294526, 8.19994818815843 ], [ 124.533497708752293, 8.20158168884393 ], [ 124.533800891797796, 8.202170221378651 ], [ 124.534143134198303, 8.203224819469881 ], [ 124.533230396965294, 8.204101752893621 ], [ 124.533523137982499, 8.204670009313531 ], [ 124.5338860629914, 8.205788417901204 ], [ 124.534730174757797, 8.207033701044509 ], [ 124.534028533590003, 8.20806883690733 ], [ 124.534371997269901, 8.209745602177861 ], [ 124.534350500775105, 8.210796741476486 ], [ 124.534911908857595, 8.211336110772947 ], [ 124.535625755624196, 8.21207904880913 ], [ 124.536380290418194, 8.214404359273829 ], [ 124.537711896786604, 8.216368778996014 ], [ 124.539355976197399, 8.217446703702478 ], [ 124.539628170403802, 8.21828552655586 ], [ 124.539939287268297, 8.219194398502736 ], [ 124.541300255602295, 8.220502000167244 ], [ 124.542718660038204, 8.222665445254165 ], [ 124.5426619703737, 8.225444275732798 ], [ 124.5431195598198, 8.226781171014295 ], [ 124.543522289722006, 8.22716810162666 ], [ 124.545121206978095, 8.228832253006146 ], [ 124.545461008618801, 8.230239876369239 ], [ 124.544349991558903, 8.23077890662131 ], [ 124.543797806024003, 8.231063373875656 ], [ 124.542966781192007, 8.23077890662131 ], [ 124.542112158149607, 8.230501559299569 ], [ 124.541302900508498, 8.229659345102732 ], [ 124.540491676050095, 8.230503661015177 ], [ 124.5382393986295, 8.23077890662131 ], [ 124.537732172002194, 8.231824417962571 ], [ 124.5363003406883, 8.231334279353575 ], [ 124.535881268305999, 8.231342891261477 ], [ 124.535186882868402, 8.231328718845361 ], [ 124.534911908857595, 8.231895484189295 ], [ 124.534306219956207, 8.232189308889531 ], [ 124.532700725058504, 8.232156556479936 ], [ 124.531823994881506, 8.232750852769698 ], [ 124.530462415907806, 8.232723050228628 ], [ 124.529634578273203, 8.233284255064348 ], [ 124.528586083880796, 8.233971723816069 ], [ 124.528245807398207, 8.234673025939458 ], [ 124.527646696138206, 8.234945220145846 ], [ 124.526023773278595, 8.234389711615961 ], [ 124.525168743742597, 8.234117517409572 ], [ 124.524635002403599, 8.234673025939458 ], [ 124.524062473304497, 8.235223109758749 ], [ 124.524080375209195, 8.236100652922858 ], [ 124.525190510933399, 8.237167253366124 ], [ 124.525462704240496, 8.237755446856454 ], [ 124.5241169254558, 8.239048468711928 ], [ 124.524912892016502, 8.24022268562851 ], [ 124.524901636101703, 8.240772836896952 ], [ 124.5254631116334, 8.241862764854773 ], [ 124.525832681732894, 8.243755643508166 ], [ 124.525462704240496, 8.244111108640823 ], [ 124.524893294889694, 8.244703778056987 ], [ 124.524357248588203, 8.247449720328405 ], [ 124.523518424835501, 8.248832930695244 ], [ 124.522405848351198, 8.250707093557594 ], [ 124.522432837005894, 8.252029884771389 ], [ 124.522401848166894, 8.253549531285898 ], [ 124.522690722998504, 8.254110261279607 ], [ 124.522962916305602, 8.254709371640217 ], [ 124.521754251757301, 8.255870569071533 ], [ 124.522157117456999, 8.256652566462833 ], [ 124.522126738358295, 8.25814047770092 ], [ 124.522135350266197, 8.258559753330019 ], [ 124.520996733912199, 8.259970223946709 ], [ 124.519699033783496, 8.260599782653912 ], [ 124.518658811355095, 8.262743968759196 ], [ 124.519079918003897, 8.264387166834354 ], [ 124.519355231059095, 8.266359384577981 ], [ 124.5199217931563, 8.267459213172174 ], [ 124.520767668493093, 8.267441921007901 ], [ 124.521607372682197, 8.268315803031953 ], [ 124.521568788169105, 8.27020468060158 ], [ 124.521874142178007, 8.271396053884814 ], [ 124.522412969183307, 8.272442040068142 ], [ 124.522755211583799, 8.273496637260052 ], [ 124.521982435840798, 8.274239101353487 ], [ 124.521029757917105, 8.275230702834733 ], [ 124.520127802656006, 8.276097260780034 ], [ 124.519046215910194, 8.276622051166783 ], [ 124.519083919087606, 8.27847119129251 ], [ 124.520190935063596, 8.278830386812956 ], [ 124.522962916305602, 8.28133573525605 ], [ 124.524368165458597, 8.282163437093004 ], [ 124.524907196609902, 8.281052420932554 ], [ 124.526594607155403, 8.280233804946192 ], [ 124.527129229830194, 8.28133573525605 ], [ 124.527423869316195, 8.28190765371528 ], [ 124.528710584226104, 8.28253192261019 ], [ 124.529073509235104, 8.283280014660988 ], [ 124.529484173855593, 8.284077134152483 ], [ 124.531020772590594, 8.283551191734148 ], [ 124.532406831110407, 8.284113412803833 ], [ 124.533758374549393, 8.284085814408854 ], [ 124.534350839819496, 8.284391031720759 ], [ 124.535467417387494, 8.284663225027884 ], [ 124.536647940350207, 8.285067312006902 ], [ 124.537128381569602, 8.286057557310471 ], [ 124.537695350160305, 8.287158063094182 ], [ 124.537669311189802, 8.288432369158556 ], [ 124.536850627754404, 8.28882953855242 ], [ 124.535887371105304, 8.289832125252417 ], [ 124.536861748770804, 8.290768257449145 ], [ 124.537542233387398, 8.291476544606894 ], [ 124.537967205322303, 8.291884835017186 ], [ 124.538267065372807, 8.292196901565831 ], [ 124.538239331180307, 8.293554140411288 ], [ 124.538245433979696, 8.293851356454979 ], [ 124.538881434530595, 8.294462470067003 ], [ 124.538235533343297, 8.300531630330511 ], [ 124.537344903244701, 8.301387338854681 ], [ 124.537438413851802, 8.305971504381489 ], [ 124.538287273139204, 8.307223771659778 ], [ 124.538800467667599, 8.307716825870841 ], [ 124.539337327855506, 8.309918922920019 ], [ 124.5396559729448, 8.310537495509038 ], [ 124.540189238542595, 8.311049876150889 ], [ 124.540755529044503, 8.311639290021276 ], [ 124.5407339651005, 8.312696262322675 ], [ 124.541028062295297, 8.314132297067886 ], [ 124.5420143065151, 8.315079889325489 ], [ 124.543366392245304, 8.314617078415495 ], [ 124.543804383665503, 8.315519915911466 ], [ 124.544456251854598, 8.316146219072778 ], [ 124.545296363436506, 8.315713448217082 ], [ 124.546342959360103, 8.316071694053505 ], [ 124.548254215659497, 8.318060932366166 ], [ 124.548234685981996, 8.3190169332849 ], [ 124.549363536597994, 8.320504572927746 ], [ 124.550534566317197, 8.32048070402135 ], [ 124.552197565665196, 8.31962397836395 ], [ 124.554429635319494, 8.320004669479943 ], [ 124.555449039341696, 8.321065710314315 ], [ 124.556298984110896, 8.321882291134898 ], [ 124.556828520220094, 8.322433459536569 ], [ 124.557864063475805, 8.322935872092899 ], [ 124.558515456823002, 8.32494314810782 ], [ 124.558951549774306, 8.326217182576954 ], [ 124.559612707960099, 8.326852436690672 ], [ 124.560198392342002, 8.327745645145455 ], [ 124.560181914963394, 8.328551172398761 ], [ 124.560190458522897, 8.328967804020976 ], [ 124.560181032728593, 8.329429868493662 ], [ 124.562121515195798, 8.331294266517261 ], [ 124.562404016532199, 8.332164758097178 ], [ 124.563242839385595, 8.333547968464018 ], [ 124.563517677598796, 8.334955726725468 ], [ 124.564099090200898, 8.335514354104191 ], [ 124.565462092801496, 8.335486551563179 ], [ 124.566192214599099, 8.335501402068076 ], [ 124.566848083872102, 8.337164333966882 ], [ 124.567131398195599, 8.337714281988553 ], [ 124.567477641679801, 8.338781221476211 ], [ 124.569001695771703, 8.339152758393141 ], [ 124.567959100931802, 8.339658561393549 ], [ 124.567686906725399, 8.339941875717045 ], [ 124.566527879358205, 8.340224444502553 ], [ 124.565462092801496, 8.340202677311765 ], [ 124.564580751800406, 8.340220647564877 ], [ 124.564633780324797, 8.342819439165851 ], [ 124.5665197422924, 8.343431435012747 ], [ 124.566848083872102, 8.344108189241581 ], [ 124.569207028081905, 8.345038625132474 ], [ 124.570401927606895, 8.346282280502919 ], [ 124.570736642681894, 8.347996748051514 ], [ 124.571019957904795, 8.348546696073186 ], [ 124.572133754769098, 8.35107096445347 ], [ 124.573100740906497, 8.352000044166743 ], [ 124.573626954920101, 8.353621542500207 ], [ 124.573236430616802, 8.354379535187434 ], [ 124.572828140206497, 8.355221138744582 ], [ 124.572380926238793, 8.35608918866518 ], [ 124.571841963435901, 8.356606994017625 ], [ 124.571859458847001, 8.357462634193269 ], [ 124.572697942656006, 8.358268229795044 ], [ 124.572680718840203, 8.35911254570749 ], [ 124.571821077580694, 8.359095050296389 ], [ 124.570720096955, 8.36024092238074 ], [ 124.570742542234598, 8.361340071986774 ], [ 124.571853220250006, 8.361878898992018 ], [ 124.572151317629306, 8.363405869585279 ], [ 124.573350963775994, 8.362787839287421 ], [ 124.573973401651202, 8.361504852966618 ], [ 124.5749085167147, 8.361051197155064 ], [ 124.575746186637303, 8.360483347228751 ], [ 124.576291727081596, 8.361051197155064 ], [ 124.576665434062704, 8.361410256877889 ], [ 124.579613792142794, 8.363343279468836 ], [ 124.5787868358439, 8.365759320736117 ], [ 124.579111108890601, 8.366706777196043 ], [ 124.578644229447704, 8.368986314866561 ], [ 124.579641594684006, 8.369944553298524 ], [ 124.579573309161006, 8.373290555614687 ], [ 124.581873596889096, 8.373243630788977 ], [ 124.583235582356295, 8.374661153889178 ], [ 124.585110830700401, 8.375890636843451 ], [ 124.585467517112306, 8.376625844307341 ], [ 124.586302338881893, 8.377427913667304 ], [ 124.5862792155134, 8.37855974913316 ], [ 124.587173779246498, 8.38029625546784 ], [ 124.588376815837506, 8.37988443881585 ], [ 124.590171300565103, 8.380498671276712 ], [ 124.591028636862106, 8.380205253070017 ], [ 124.591720988033202, 8.380219357137662 ], [ 124.592358751255503, 8.381533942937153 ], [ 124.593821843003795, 8.381033158153798 ], [ 124.5970327662492, 8.381098663872308 ], [ 124.598532611490896, 8.381612061647388 ], [ 124.599345327924695, 8.380766186310495 ], [ 124.600461905492594, 8.380493992104107 ], [ 124.601294150704604, 8.380209118356163 ], [ 124.601903025903994, 8.381137790676519 ], [ 124.603696155353305, 8.382860599437151 ], [ 124.604067149079697, 8.38438255181336 ], [ 124.604624352831706, 8.3854641385592 ], [ 124.604900412324199, 8.387160093563523 ], [ 124.6058955400472, 8.388800986676245 ], [ 124.605455920854197, 8.389654320990189 ], [ 124.605183726647695, 8.392159669433227 ], [ 124.604824666924898, 8.393208775364712 ], [ 124.606265042697601, 8.394592663820447 ], [ 124.606566937014605, 8.395214965897992 ], [ 124.606855812745593, 8.3957756958917 ], [ 124.606838995423402, 8.396598312062508 ], [ 124.607128006052704, 8.39687593097949 ], [ 124.6076621538854, 8.397431846002917 ], [ 124.608516777827106, 8.397709193324658 ], [ 124.608788971134103, 8.399397486105158 ], [ 124.608233462604304, 8.399931227444256 ], [ 124.607275631565201, 8.400928117838419 ], [ 124.607848295562505, 8.40147833745533 ], [ 124.609083678069396, 8.40187916888857 ], [ 124.609063809347404, 8.402850426805799 ], [ 124.609072760299696, 8.40328685880155 ], [ 124.610736573534197, 8.403252886011956 ], [ 124.6110110052538, 8.404658610006891 ], [ 124.611352569565497, 8.405321666661621 ], [ 124.610952755265501, 8.406489780778827 ], [ 124.611316561610096, 8.407195965321591 ], [ 124.611854438931204, 8.407712753540807 ], [ 124.610733250539198, 8.407986099778725 ], [ 124.610461057232101, 8.408269415001541 ], [ 124.609502614654104, 8.408734395076294 ], [ 124.6085166420295, 8.407708210165822 ], [ 124.607267357802399, 8.407733706845136 ], [ 124.607689075090803, 8.408552390280647 ], [ 124.607677886625197, 8.409099896642942 ], [ 124.607705892412994, 8.410469952626272 ], [ 124.607377211789, 8.410785748663443 ], [ 124.605744389192296, 8.41075238561416 ], [ 124.605183726647695, 8.411340918148881 ], [ 124.606022550400397, 8.412146852795047 ], [ 124.606566937014605, 8.41271348234136 ], [ 124.606950952024903, 8.413082442700613 ], [ 124.607688736046399, 8.412702361324989 ], [ 124.608544986861702, 8.412719856736032 ], [ 124.608511148970393, 8.414377227227305 ], [ 124.608522405784498, 8.414927242698127 ], [ 124.607955708789007, 8.415763218297911 ], [ 124.607683514582604, 8.416280006517127 ], [ 124.609627793987599, 8.416596480643136 ], [ 124.609899988194002, 8.417173756363809 ], [ 124.609072760299696, 8.417968569993548 ], [ 124.608794531642403, 8.418737412101962 ], [ 124.609921755384804, 8.41909626857796 ], [ 124.610727825828604, 8.418257309926958 ], [ 124.611288759068998, 8.418546320556288 ], [ 124.612473690508494, 8.418835196287318 ], [ 124.612122021414194, 8.420207285637787 ], [ 124.611849828107097, 8.421623588357988 ], [ 124.612960845166995, 8.423262582102552 ], [ 124.613233038474107, 8.424117611638508 ], [ 124.612676377912507, 8.424652438459304 ], [ 124.612971966183395, 8.425805701172237 ], [ 124.6139357651235, 8.426731729485766 ], [ 124.614502394669799, 8.427321482400544 ], [ 124.614899564063705, 8.428545473195072 ], [ 124.615183014184794, 8.428817802299761 ], [ 124.615161382791598, 8.429876875417506 ], [ 124.617165335811706, 8.430268145258765 ], [ 124.617818763425305, 8.431615009525103 ], [ 124.619003016775906, 8.43159080067494 ], [ 124.619399575529997, 8.434836307349769 ], [ 124.621457506758603, 8.435238020118561 ], [ 124.621843419338404, 8.436071961451887 ], [ 124.621254616107805, 8.437214984484001 ], [ 124.620448952157503, 8.437988980607031 ], [ 124.620465566232994, 8.43880149289464 ], [ 124.620176758850505, 8.439928241794973 ], [ 124.620188693753207, 8.440511824461169 ], [ 124.618770967406306, 8.44048286898925 ], [ 124.618799379687601, 8.441874895410137 ], [ 124.618036708727203, 8.44224494035177 ], [ 124.618515929566598, 8.442705377950858 ], [ 124.618788122873596, 8.444253639993519 ], [ 124.617891321627198, 8.445576634454142 ], [ 124.617048633487698, 8.446386299488154 ], [ 124.617415694478794, 8.447458799484082 ], [ 124.617384773088801, 8.448974987205929 ], [ 124.618234852756402, 8.448537063234937 ], [ 124.619098359301901, 8.448832652405031 ], [ 124.619952235906993, 8.449721384034717 ], [ 124.621312458703102, 8.448799356804898 ], [ 124.622481725751101, 8.448823226610671 ], [ 124.623682049087407, 8.450442487430905 ], [ 124.623221204994707, 8.451337118613196 ], [ 124.623243312129304, 8.452421553511954 ], [ 124.622943451179395, 8.453003644202852 ], [ 124.622960065254901, 8.453818326554597 ], [ 124.622943451179395, 8.454633008906285 ], [ 124.623237751621005, 8.455204317625203 ], [ 124.624196124951297, 8.457179722566195 ], [ 124.626017463435204, 8.458260902818438 ], [ 124.6257319790477, 8.458815122619853 ], [ 124.625459784841297, 8.459653945473235 ], [ 124.624201550561196, 8.460062235883527 ], [ 124.623515369638696, 8.460776422593881 ], [ 124.622246081791303, 8.46075051852165 ], [ 124.621571226031307, 8.462299459552469 ], [ 124.622404488376503, 8.462703681429787 ], [ 124.623509944928102, 8.463542504283168 ], [ 124.624560338688795, 8.464231194314209 ], [ 124.624898715803198, 8.464942193827255 ], [ 124.623558226830696, 8.465592569141791 ], [ 124.623373847824794, 8.467289406381042 ], [ 124.6232221546787, 8.467415467050216 ], [ 124.622210820273196, 8.467518540148546 ], [ 124.621302151573104, 8.469110134225389 ], [ 124.621002087376496, 8.469079550980553 ], [ 124.6206220060009, 8.469537140426723 ], [ 124.620166858214006, 8.469915254985096 ], [ 124.619542453521504, 8.472236835961269 ], [ 124.620526392778899, 8.473603975443154 ], [ 124.621000120559202, 8.475218218046393 ], [ 124.621358163148798, 8.475515705685325 ], [ 124.621251564708004, 8.476561759317804 ], [ 124.620557518314897, 8.478408797727866 ], [ 124.618458086971202, 8.478874320993157 ], [ 124.617137194226203, 8.480610963125514 ], [ 124.617696839637503, 8.481588120595347 ], [ 124.617541009609994, 8.482288133990266 ], [ 124.617086335765904, 8.483303673625699 ], [ 124.617193952239205, 8.484359559546078 ], [ 124.616266431950294, 8.484761815505408 ], [ 124.6151697914528, 8.484349727258177 ], [ 124.614902818710206, 8.485259616338283 ], [ 124.613584775017401, 8.485831264101591 ], [ 124.613216764342297, 8.486679715996161 ], [ 124.612548825268206, 8.487234546437207 ], [ 124.611557222887498, 8.487133440156185 ], [ 124.611245631181006, 8.488195158180076 ], [ 124.612105408238094, 8.490211520944968 ], [ 124.612640979697503, 8.49065642995032 ], [ 124.612111985879594, 8.491580084953 ], [ 124.611710408908294, 8.49339104705922 ], [ 124.612263679025702, 8.495342583093759 ], [ 124.612263679025702, 8.495898091623701 ], [ 124.612541433740304, 8.495898091623701 ], [ 124.612705739877995, 8.496011539301151 ], [ 124.612932635232895, 8.496830086938985 ], [ 124.612263679025702, 8.497842371028639 ], [ 124.612119513205002, 8.497975959023336 ], [ 124.611574582501007, 8.498572289579556 ], [ 124.6123750249875, 8.499313938887212 ], [ 124.612973119114301, 8.500240102998418 ], [ 124.612952572303499, 8.500758790585792 ], [ 124.613001870440002, 8.502003597987709 ], [ 124.611803242325905, 8.502569278749263 ], [ 124.611854032437705, 8.50385117958831 ], [ 124.612950672935298, 8.50486726061564 ], [ 124.611486292458494, 8.505216080657647 ], [ 124.610736031242894, 8.505186312198589 ], [ 124.610154076349701, 8.505209435567053 ], [ 124.609630303096097, 8.506319163898354 ], [ 124.609341970555505, 8.506586339887747 ], [ 124.609074794566098, 8.507707934773407 ], [ 124.607985613045699, 8.508411271163254 ], [ 124.607408269875805, 8.509150412261761 ], [ 124.607994021706801, 8.509641636352512 ], [ 124.608673285044105, 8.508908530604231 ], [ 124.609795627266394, 8.510119840058621 ], [ 124.610175232900701, 8.511318739768058 ], [ 124.610482485378498, 8.512195265798937 ], [ 124.611852269766501, 8.512141016894475 ], [ 124.612119513205002, 8.513470114154472 ], [ 124.610970182328103, 8.514968874813746 ], [ 124.611708170495703, 8.516174149817232 ], [ 124.611708170495703, 8.517285165977682 ], [ 124.610827847527204, 8.517654940223338 ], [ 124.6102059519432, 8.516565351309964 ], [ 124.608477515225204, 8.516336963979768 ], [ 124.608603236849902, 8.515776166536909 ], [ 124.607903290904204, 8.515292876265278 ], [ 124.606838249885399, 8.515986380367224 ], [ 124.606141355339304, 8.516995680506284 ], [ 124.604991211475294, 8.517789816047241 ], [ 124.604764315221004, 8.51811842922217 ], [ 124.603931052875893, 8.51811842922217 ], [ 124.603931052875893, 8.518673937752055 ] ] ] ] } }
]
}
